PK;NOMBRE;DESCRIPCION-ENTIDAD;HORARIO;EQUIPAMIENTO;TRANSPORTE;DESCRIPCION;ACCESIBILIDAD;CONTENT-URL;NOMBRE-VIA;CLASE-VIAL;TIPO-NUM;NUM;PLANTA;PUERTA;ESCALERAS;ORIENTACION;LOCALIDAD;PROVINCIA;CODIGO-POSTAL;BARRIO;DISTRITO;COORDENADA-X;COORDENADA-Y;LATITUD;LONGITUD;TELEFONO;FAX;EMAIL;TIPO;
6430067;Bibliobús número 10. Recorrido semanal;; Consulte en   documentación asociada   el detalle del Horario de invierno. ;;;;0;http://www.madrid.es/vgn-ext-templating/v/index.jsp?vgnextchannel=9e4c43db40317010VgnVCM100000dc0ca8c0RCRD&vgnextoid=734a6e6b06637310VgnVCM1000000b205a0aRCRD;;Servicio itinerante;;;;;;;MADRID;MADRID;;;;0;0;;;917 951 761 / Móvil: 639 624 276;;;/contenido/entidadesYorganismos/Bibliobuses; 
6431159;Bibliobús número 11. Recorrido semanal;; Consulte en   documentación asociada   el detalle del horario de invierno. ;;;;0;http://www.madrid.es/vgn-ext-templating/v/index.jsp?vgnextchannel=9e4c43db40317010VgnVCM100000dc0ca8c0RCRD&vgnextoid=1d69b5f1cea37310VgnVCM1000000b205a0aRCRD;;Servicio itinerante;;;;;;;MADRID;MADRID;;;;0;0;;;917 951 761 / Móvil: 619 247 322;;;/contenido/entidadesYorganismos/Bibliobuses; 
6432104;Bibliobús número 12. Recorrido semanal;; Consulte en   documentación asociada   el detalle del Horario de invierno. ;;;;0;http://www.madrid.es/vgn-ext-templating/v/index.jsp?vgnextchannel=9e4c43db40317010VgnVCM100000dc0ca8c0RCRD&vgnextoid=7a70ded3cbb37310VgnVCM2000000c205a0aRCRD;;Servicio itinerante;;;;;;;MADRID;MADRID;;;;0;0;;;917 951 761 / Móvil: 639 624 280;;;/contenido/entidadesYorganismos/Bibliobuses; 
6435986;Bibliobús número 13. Recorrido semanal;; Consulte en   documentación asociada   el detalle del Horario de invierno. ;;;;0;http://www.madrid.es/vgn-ext-templating/v/index.jsp?vgnextchannel=9e4c43db40317010VgnVCM100000dc0ca8c0RCRD&vgnextoid=18cc33935b957310VgnVCM2000000c205a0aRCRD;;Servicio itinerante;;;;;;;MADRID;MADRID;;;;0;0;;;917 951 761 / Móvil: 619 252 842;;;/contenido/entidadesYorganismos/Bibliobuses; 
7110421;Bibliobús número 2. Recorrido quincenal;;Consulte en   documentación asociada   el detalle del Horario de invierno.;;;;0;http://www.madrid.es/vgn-ext-templating/v/index.jsp?vgnextchannel=9e4c43db40317010VgnVCM100000dc0ca8c0RCRD&vgnextoid=88626db26d531410VgnVCM1000000b205a0aRCRD;;Servicio itinerante;;;;;;;MADRID;MADRID;;;;0;0;;;917 951 761 / 639 623 967;;;/contenido/entidadesYorganismos/Bibliobuses; 
6427915;Bibliobús número 6. Recorrido semanal;;;;;;0;http://www.madrid.es/vgn-ext-templating/v/index.jsp?vgnextchannel=9e4c43db40317010VgnVCM100000dc0ca8c0RCRD&vgnextoid=a92128420e037310VgnVCM1000000b205a0aRCRD;;Servicio itinerante;;;;;;;MADRID;MADRID;;;;0;0;;;917 951 761 / 639 623 978;;;/contenido/entidadesYorganismos/Bibliobuses; 
6429143;Bibliobús número 9. Recorrido semanal;; Consulte en   documentación asociada   el detalle del Horario de invierno. ;;;;0;http://www.madrid.es/vgn-ext-templating/v/index.jsp?vgnextchannel=9e4c43db40317010VgnVCM100000dc0ca8c0RCRD&vgnextoid=a60438972b537310VgnVCM1000000b205a0aRCRD;;Servicio itinerante;;;;;;;MADRID;MADRID;;;;0;0;;;917 951 761 / Móvil: 639 623 973;;;/contenido/entidadesYorganismos/Bibliobuses; 
7902770;Bibliometro; El  Bibliometro  es un servicio de extensión bibliotecaria destinado al fomento de la lectura mediante el préstamo gratuito de libros en el Metro de Madrid.  Promovido conjuntamente por el Ayuntamiento de Madrid y la Comunidad de Madrid en colaboración con Metro, el Bibliometro es el primer servicio común a los dos sistemas de Bibliotecas Públicas del Ayuntamiento de Madrid y la Comunidad de Madrid.  El servicio gestionado por el Ayuntamiento de Madrid se centraliza en la Unidad Técnica de Bibliotecas Públicas, localizada en la calle Príncipe de Vergara, 140. ;  Horario:  de 13.30 a 20.00 de lunes a viernes, excepto festivos.  ;  Datos de localización  de los distintos  módulos de Bibliometro .  Servicios:  Préstamo y renovación de libros. Acceda al  catálogo de Bibliometro  para búsqueda de libros y renovar sus préstamos. ;;;0;http://www.madrid.es/vgn-ext-templating/v/index.jsp?vgnextchannel=9e4c43db40317010VgnVCM100000dc0ca8c0RCRD&vgnextoid=3d2cd4bdf66bb410VgnVCM1000000b205a0aRCRD;PRINCIPE DE VERGARA;CALLE;V;140;;;;;MADRID;MADRID;28002;CIUDAD JARDIN;CHAMARTIN;442601;4477517;4.044.444.653.179.130;-367.813.993.012.987;"                                   
91 588 57 24      
";;;/contenido/entidadesYorganismos/BibliotecasPublicas; 
8053214;Bibliored; El  Bibliored  es un servicio de extensión bibliotecaria destinado al fomento de la lectura mediante el préstamo gratuito de libros, un proyecto similar al de Bibliometro pero en la superficie.  Existen dos módulos de Bibliored: el de Cuatro Caminos y el de Sanchinarro, situados dentro de un centro juvenil y un centro cultural respectivamente.  El servicio, gestionado por el Ayuntamiento de Madrid, se centraliza en la Unidad Técnica de Bibliotecas Públicas, localizada en la calle Príncipe de Vergara, 140. ;  Horario:  de 13.30 a 20.00 de lunes a viernes, excepto festivos.  ;  Datos de localización :    Bibliored Cuatro Caminos : calle Raimundo Fernández Villaverde, 2. Teléfono: 91 535 34 56 (para el servicio de renovaciones: 91 588 56 60). Email:  br1@madrid.es       Bibliored Sanchinarro : calle Princesa de Éboli, 21. Teléfono: 91 318 58 46. Email:  brsanchinarro@madrid.es         Servicios:  Préstamo y renovación de libros.  Acceda al catálogo  para la búsqueda de libros y renovar sus préstamos.   * Los libros del módulo de Sanchinarro solo se podrán prestar y devolver en sus instalaciones. Los libros del módulo de Cuatro Caminos podrán devolverse además en cualquier módulo de Bibliometro. Las condiciones de préstamo son las mismas que para Bibliometro.  El Bibliored de Sanchinarro está situado dentro del Centro Cultural de Sanchinarro, puede consultar la información sobre sus instalaciones (salas de estudio, salas polivalentes y aulas de tecnología) en su  web .  ;;;0;http://www.madrid.es/vgn-ext-templating/v/index.jsp?vgnextchannel=9e4c43db40317010VgnVCM100000dc0ca8c0RCRD&vgnextoid=917c40221457d410VgnVCM2000000c205a0aRCRD;PRINCIPE DE VERGARA;CALLE;V;140;;;;;MADRID;MADRID;28002;CIUDAD JARDIN;CHAMARTIN;442601;4477517;4.044.444.653.179.130;-367.813.993.012.987;"                                             
91 588 57 24                
";;;/contenido/entidadesYorganismos/BibliotecasPublicas; 
1881;Biblioteca Histórica Municipal; El origen de la  Biblioteca Histórica Municipal  fue la formación de una colección de libros sobre Madrid. Creada como Biblioteca Municipal en 1876 a iniciativa de Ramón de Mesonero Romanos, en 1990 recibe la denominación de Histórica y se constituye en un centro para la investigación. Su principal objetivo es la protección del legado patrimonial bibliográfico y su difusión.   Entre sus  colecciones especiales  están las siguientes: Madrid, Teatro y Música (manuscritos e impresos de los siglos  XVII  a  XIX ), Bio-bibliografía (Colección Beltrán), Paremiología, Raros, Veterinaria, Guerra Civil Española (Colección Tomás Borrás), Lope de Vega, Cervantes y Toros. ;  Horario : de lunes a viernes de 8:30 a 14:30 horas.   Cerrada  festivos y los días 24 y 31 de diciembre. ; Los  servicios que se prestan  son los siguientes:   Préstamo en Sala de investigación.   Consulta de la colección de referencia en la Sala de investigación.    Petición anticipada de documentos a través del correo:  bibliotecah@madrid.es   Información bibliográfica por correo postal, correo electrónico y teléfono.    Reprografia.    Catálogo en línea      Requisitos:  Ser mayor de edad y tener carné de usuario ; Metro:  San Bernardo , Ventura Rodríguez , Plaza España, Noviciado  Bus:  1 , 2 , 7 , 21 , 44 , 74 , 147 , Circular, Minibús M-2;"   Directorio:     Dirección  Ilda María del Rosario Pérez García Teléfono: 91 588 57 44 Correo electrónico  bibliotecah@madrid.es    Negociado Administrativo / Secretaría   Teléfono: 91 5885723; 91 5885737   Sección de Información y Referencia  Teléfonos: 91 5885756; 91 4800557 Correo electrónico  bibliotecah@madrid.es    Sección de Colecciones Especiales  Correo electrónico:  bibliotecah@madrid.es    Sección de Fondos Generales  Correo electrónico  bibliotecah@madrid.es   ";1;http://www.madrid.es/vgn-ext-templating/v/index.jsp?vgnextchannel=9e4c43db40317010VgnVCM100000dc0ca8c0RCRD&vgnextoid=ccbc3d0b5e71c010VgnVCM1000000b205a0aRCRD;CONDE DUQUE;CALLE;V;9;;;;;MADRID;MADRID;28015;UNIVERSIDAD;CENTRO;439832;4475644;4.042.737.760.210.630;-37.106.116.887.809.800;Secretaría: 915885737. Información y Referencia: 915885756, 914800557 y 915885744 ;;bibliotecah@madrid.es;/contenido/entidadesYorganismos/BibliotecasPublicas; 
6779450;Biblioteca Musical Víctor Espinós;   La  Biblioteca Musical Víctor Espinós  fue fundada en 1919 a propuesta de Víctor Espinós como  Biblioteca Musical Circulante . Es un centro creado para la difusión y fomento de la educación musical y desde sus comienzos tiene un marcado carácter de servicio público, abierto a todo tipo de usuarios. En 1932 se inicia un servicio pionero de préstamo de instrumentos cuyo fin es facilitar el estudio musical. ; De lunes a viernes de 8:30 a 21:00 horas.   Cerrado  festivos y los días 24 y 31 de diciembre. ;" Accesible a personas con discapacidad física.  Espacios:  Sala de consulta y lectura; Salas de ensayo; Sala polivalente.  Servicios:  Préstamo de libros, partituras, multimedia y revistas; Préstamo de instrumentos; Zona WiFi; Información bibliográfica; Formación de usuarios; Animación a la lectura; Reprografía "; Metro : Ventura Rodríguez, Plaza de España, San Bernardo y Noviciado.  Bus : 1 , 2 , 7 , 21 , 44 , 74 , 147 , Circular, Minibús M-2;   Directorio:        Dirección:   Inmaculada Seldas Fernández Tfno: 91 513 36 81   Adjunto:  Ignacio Gómez Novillo Teléfono: 91 480 14 17     Préstamo de Instrumentos  Teléfono: 91 588 57 55    Información bibliográfica  Teléfono: 91 588 57 51    Gestión económica y administrativa  Teléfono: 91 588 57 53 Teléfono: 91 480 13 44   Mostrador de préstamo / Cabinas de ensayo  Teléfonos: 91 588 57 60 / 91 588 57 39    ;1;http://www.madrid.es/vgn-ext-templating/v/index.jsp?vgnextchannel=9e4c43db40317010VgnVCM100000dc0ca8c0RCRD&vgnextoid=d482270f58c6c310VgnVCM2000000c205a0aRCRD;CONDE DUQUE;CALLE;V;9;;;;;MADRID;MADRID;28015;UNIVERSIDAD;CENTRO;439832;4475644;4.042.737.760.210.630;-37.106.116.887.809.800;"91 588 57 53 / 91 588 57 39 / 91 588 57 55                                                     
91 588 57 60";;bibliomusical@madrid.es;/contenido/entidadesYorganismos/BibliotecasPublicas; 
1771;Biblioteca Pública Acuña;;"  Sección de adultos:  de lunes a viernes de 9 a 21 horas. Sábados de 9 a 14 horas.   Sección infantil/juvenil:  de lunes a viernes de 15 a 21 horas. Sábados de 9 a 14 horas.   Servicio de préstamo y acceso a internet:  lunes a viernes de 9 a 20:45 horas; sábados de 9 a 13:45 horas ";   Sala adultos o principal : capacidad: 60. Puestos de atención: 5.   Internet : capacidad: 4.    Sala infantil/juvenil : capacidad: 20. Puestos de atención: 2.   Hemeroteca : capacidad: 9.   ;" Metro: Arg&uuml;elles (líneas 3, 4, 6)  Bus: 1, 2, 44, 74, 133, C1, C2, M2 ";"  Préstamo domiciliario:  carné gratuito presentando el  DNI,  u otro documento que acredite legalmente la identidad personal y para los menores de 14 años, con autorización del padre, la madre o tutor legal   Días de cierre de la Biblioteca 2015:     Sábados: 4 de abril; 4, 11, 18 y 25 de julio; 1, 8, 22 y 29 de agosto; 5 y 12 de septiembre; 26 de diciembre  Domingos: todos  Festivos: 1 y 6 de enero; 19 de marzo, 2 y 3 de abril; 1, 2 y 15 de mayo; 4 de junio; 15 de agosto; 12 de octubre; 9 de noviembre; 8 y 25 de diciembre.   Otros: 24 y 31 de diciembre   ";1;http://www.madrid.es/vgn-ext-templating/v/index.jsp?vgnextchannel=9e4c43db40317010VgnVCM100000dc0ca8c0RCRD&vgnextoid=e9ad995a8bf5d010VgnVCM2000000c205a0aRCRD;QUINTANA;CALLE;V;9;;;;;MADRID;MADRID;28008;ARGUELLES;MONCLOA-ARAVACA;439295;4475709;4.042.792.406.693.140;-37.169.480.812.867.400;"915 413 619                                                                  
";915 426 939;bib.acuna@madrid.org;/contenido/entidadesYorganismos/BibliotecasPublicas; 
1767;Biblioteca Pública Canillejas;;"  Adultos:  lunes, jueves y viernes de 9 a 14 horas. Martes y miércoles de 16 a 20:45 horas.   La biblioteca infantil está cerrada hasta nuevo aviso.   Días de cierre 2015 :   Fines de semana y festivos  Semana Santa (27 de marzo al 6 de abril)  Julio y agosto  Días no lectivos (13 de febrero; 19 de marzo; 1, 2 y 15 de mayo, 4 de junio)  ";   Sala adultos o principal : capacidad: 30.   Audiovisuales y materiales especiales : capacidad: 2.   Internet : capacidad: 6.   Sala infantil/juvenil : capacidad: 32. Puestos de atención: 1.   Ordenadores multimedia : capacidad: 2.  ; Metro: Las Musas (línea 7)  Bus: 28, 48, 140 ;  Préstamo domiciliario: c arné gratuito presentando el  DNI  u otro documento que acredite legalmente la identidad personal y, para los menores de 14 años, con autorización del padre, la madre o tutor legal ;1;http://www.madrid.es/vgn-ext-templating/v/index.jsp?vgnextchannel=9e4c43db40317010VgnVCM100000dc0ca8c0RCRD&vgnextoid=a8cd995a8bf5d010VgnVCM2000000c205a0aRCRD;MUSAS;CALLE;V;11;;;;;MADRID;MADRID;28022;CANILLEJAS;SAN BLAS-CANILLEJAS;448512;4476732;4.043.776.263.645.110;-36.083.782.410.803.900;917 424 499;913 200 943;bib.canillejas@madrid.org;/contenido/entidadesYorganismos/BibliotecasPublicas; 
5765642;Biblioteca Pública Carabanchel Luis Rosales;; De lunes a viernes de 9 a 21 horas.  Fines de semana y festivos, de 11 a 19 horas (excepto el 1 de mayo, 25 de diciembre, 1 de enero y fines de semana y festivos de agosto).   El 24 y 31 de diciembre la biblioteca abrirá de 9 a 14 horas. ;   Sala infantil: Capacidad: 58. Adaptados para discapacitados: Pc con software para ciegos y zoom tex, lupas, y telelupas. Puestos de atención: 1. Otra información: 10 puestos multimedia + 2 catálogos de consulta.    Sala adultos o principal: Capacidad: 161. Adaptados para discapacitados: Pc con sofware para ciegos y zoom tex. Puestos de atención: 2.    Sala juvenil: Capacidad: 77. Adaptados para discapacitados: Pc con software para ciegos y zoom tex, lupas. Puestos de atención: 1. Otra información: 29 puestos internet + 2 catálogos de consulta.   Hemeroteca: Capacidad: 21. Adaptados para discapacitados: Pc con software para ciegos y zoom Tex, lupas, y telelupas. Puestos de atención: 1.   Ordenadores multimedia:  Capacidad: 2. Puestos de atención: 1.  Internet: Capacidad: 45. Adaptados para discapacitados: 4 Puesto adaptado para ciegos con Software específico y Zoom Tex. Puestos de atención: 1.   Salón de actos:  Capacidad: 120. Adaptados para discapacitados: Bucle magnético para sordos. Otra información: proyector, Pantalla, Megafonía, Reproductor DVD.   Sala-taller: Capacidad: 60. Otra información: Pizarra digital, proyector, portátil, Monitor TV.   Audiovisuales y materiales especiales:  Capacidad: 4. Puestos de atención: 1.   Zona de trabajos o servicios internos:  Adaptadas para discapacitados: Mesa accesible.  ; Metro: San Francisco (línea 11), Carabanchel Alto (línea 11)  Bus: 34, 25, 47, 131, 121  ;  Préstamo domiciliario:  Carné gratuito presentando el  D.N.I  u otro documento que acredite legalmente la identidad personal y, para los menores 14 años de edad, con autorización del padre, la madre o tutor legal.   Información adicional sobre horarios:  los fines de semana y festivos de 14:30 a 15:30 horas no se asignarán préstamos de libros ni acceso a Internet pero sí continuará abierta la sala de lectura. Todos los días los servicios de préstamo y acceso a Internet finalizarán 15 minutos antes del cierre.  ;1;http://www.madrid.es/vgn-ext-templating/v/index.jsp?vgnextchannel=9e4c43db40317010VgnVCM100000dc0ca8c0RCRD&vgnextoid=7a73f884ad3f9210VgnVCM1000000b205a0aRCRD;ANTONIA RODRIGUEZ SACRISTAN;CALLE;V;7;;;;;MADRID;MADRID;28044;PUERTA BONITA;CARABANCHEL;436603;4469681;40.373.420.234.648.600;-37.480.802.097.487.600;"912 760 233                                                                                                   
";914 613 331;bib.carabanchel@madrid.org;/contenido/entidadesYorganismos/BibliotecasPublicas; 
1764;Biblioteca Pública Central;;;   Sala adultos o principal : capacidad: 102. Condiciones de acceso: libre acceso.    Hemeroteca : capacidad: 22. Puestos de atención: 1.    Internet : capacidad: 20. Puestos de atención: 2.   Sala infantil/juvenil : capacidad: 29. Puestos de atención: 2.    Salón de actos : condiciones de acceso: según aforo.    Depósitos    Otras instalaciones : capacidad: 14. Puestos de atención: 2.    Sala-taller : puestos de atención: 20.  ; Metro: Iglesia (línea 1)  Bus: 3, 5, 12, 16, 37, 40, 61,149 ;"  Horario:     Sección de adultos:  de lunes a viernes de 9 a 21 horas. Sábado de 9 a 14 horas.   Sección infantil/juvenil:  de lunes a viernes de 15 a 21 horas. Sábados de 9 a 14 horas.   Sala de lectura:  de lunes a viernes de 9 a 21 horas. Sábados de 9 a 14 horas.   Servicio de préstamo y acceso a internet:  lunes a viernes de 9 a 20:45 horas. Sábados de 9 a 13:45 horas. La biblioteca estará cerrada los sábados de julio, agosto y primera quincena de septiembre.    Días de cierre 2015:     Domingos  Sábados: 4 de abril; sábados de julio y agosto; 5 y 12 de septiembre  Festivos: 1 y 6 de enero; 19 de marzo; 2 y 3 de abril; 1, 2 y 15 de mayo; 4 de junio; 15 de agosto; 12 de octubre; 9 de noviembre; 8, 24, 25, 31 de diciembre  ";1;http://www.madrid.es/vgn-ext-templating/v/index.jsp?vgnextchannel=9e4c43db40317010VgnVCM100000dc0ca8c0RCRD&vgnextoid=5a2279262ef5d010VgnVCM1000000b205a0aRCRD;FELIPE EL HERMOSO;CALLE;V;4;;;;;MADRID;MADRID;28010;TRAFALGAR;CHAMBERI;440772;4476526;4.043.539.063.992.490;-36.996.132.452.669.000;914 459 782;914 472 444;bib.central@madrid.org;/contenido/entidadesYorganismos/BibliotecasPublicas; 
1798;Biblioteca Pública Centro Pedro Salinas;;"  Sección de adultos:  de lunes a viernes de 9 a  21 horas    Sección infantil/juvenil:  de lunes a viernes de 15 a 21 horas   Cierre del siervicio de préstamo:  15 minutos antes   Días de cierre 2015    Sábados y domingos   1 y 6 de enero; 19 de marzo; 2 y 3 de abril; 1, 2 y 15 de mayo; 4 de junio; 12 de octubre; 9 de noviembre; 8, 24, 25 y 31 de diciembre  ";   Sala adultos o principal : Capacidad: 128   Internet : Capacidad: 14. Puestos de atención: 2   Salón de actos : Capacidad: 45   Zona de trabajos o servicios internos : Capacidad: 5   Sala infantil/juvenil : Capacidad: 72   Hemeroteca : Capacidad: 15  ; Metro: Puerta Toledo (línea 5)  Bus: 3, 17, 18, 23, 35, 41, 60, 148, C1, C2  Renfe: Pirámides ;  Préstamo domiciliario:  Carné gratuito presentando el  D.N.I  u otro documento que acredite legalmente la identidad personal y, para los menores 14 años de edad, con autorización del padre, la madre o tutor legal. ;1;http://www.madrid.es/vgn-ext-templating/v/index.jsp?vgnextchannel=9e4c43db40317010VgnVCM100000dc0ca8c0RCRD&vgnextoid=67ed995a8bf5d010VgnVCM2000000c205a0aRCRD;PUERTA DE TOLEDO;GLORIETA;V;1;;;;;MADRID;MADRID;28005;EMBAJADORES;CENTRO;439779;4473395;4.040.711.374.218.030;-37.110.231.390.549.100;913 665 407;913 657 523;bib.centro@madrid.org;/contenido/entidadesYorganismos/BibliotecasPublicas; 
66904;Biblioteca Pública Fuencarral - El Pardo. Rafael Alberti;;"  Secciones de adultos, prensa y audiovisuales : de lunes a viernes de 9 a 21 horas. (Préstamo hasta las 20:45 horas).; Sábados de  9 a 14 horas (Préstamo hasta las 13:45 horas).    Sección infantil:  de lunes a viernes de 15 a 21 horas. (Préstamo hasta las 20:45 horas).; Sábados de  9 a 14 horas (Préstamo hasta las 13:45 horas)    Sala de lectura:  de lunes a viernes de 9 a 21 horas. Sábados de  9 a 14 horas  ";  Sala adultos o principal. Capacidad :99  Audiovisuales y materiales especiales. Capacidad: 12  Internet. Capacidad: 14  Sala infantil. Capacidad: 55  Hemeroteca: Capacidad: 35  Fondo Local  Ordenadores multimedia  Salón de actos  Zona de trabajos o servicios internos  Depósitos  Otras instalaciones  ; Metro: Herrera Oria (línea 9)  Bus: 67, 83, 124, 125, 178  Renfe: Ramón y Cajal ;"  Préstamo domiciliario:  carné gratuito presentando el  DNI  u otro documento que acredite legalmente la identidad personal y, para los menores de 14 años, con autorización de padre, la madre o tutor legal.   Días cierre biblioteca año 2015:      Sábados:  4 de abril; 26 de diciembre; 4, 11, 18 y 25 de julio, 1, 8, 22 y 29 de agosto; 5 y 12 de septiembre.   Domingos : Todos   Festivos:  1 y 6 de enero; 19 de marzo; 2 y 3 de abril; 1, 2 y 15 de mayo; 4 de junio; 15 de agosto; 12 de octubre; 9 de noviembre;  8 y 25 de diciembre.    Otros:  24 y 31 de diciembre  ";1;http://www.madrid.es/vgn-ext-templating/v/index.jsp?vgnextchannel=9e4c43db40317010VgnVCM100000dc0ca8c0RCRD&vgnextoid=260e995a8bf5d010VgnVCM2000000c205a0aRCRD;SANGENJO;CALLE;V;38;;;;;MADRID;MADRID;28034;LA PAZ;FUENCARRAL-EL PARDO;440920;4482355;40.487.911.219.470.300;-36.984.120.325.536.200;917 319 552 / 917 319 553;917 398 231;bib.fuencarral@madrid.org;/contenido/entidadesYorganismos/BibliotecasPublicas; 
1770;Biblioteca Pública Hortaleza;; De lunes a jueves de 9 a 20:30 horas. Viernes de 9 a 14:30 horas  Información adicional: desde el 1 de julio al 31 de agosto ambos inclusive cerrada por vacaciones. Al estar la biblioteca dentro de un centro docente, los días de cierre de la misma se rigen por el  calendario escolar vigente . ;  Sala adultos o principal: capacidad: 56. Puestos de atención: 1.  Audiovisuales y materiales especiales  Internet: capacidad: 4.  Sala infantil/juvenil: capacidad: 16. Puestos de atención: 1.  ; Metro: Hortaleza (línea 4), Parque de Santa María (línea 4)  Bus: 9, 107 ;  Préstamo domiciliario:  carné gratuito presentando el  DNI  u otro documento que acredite legalmente la identidad personal y, para los menores de edad, con autorización del padre, la madre o tutor legal ;1;http://www.madrid.es/vgn-ext-templating/v/index.jsp?vgnextchannel=9e4c43db40317010VgnVCM100000dc0ca8c0RCRD&vgnextoid=e42e995a8bf5d010VgnVCM2000000c205a0aRCRD;ABERTURA;CALLE;V;2;;;;;MADRID;MADRID;28033;PINAR DEL REY;HORTALEZA;445046;4481138;4.047.723.185.032.390;-36.496.247.031.818.500;917 633 284;917 633 284;bib.hortaleza@madrid.org;/contenido/entidadesYorganismos/BibliotecasPublicas; 
25526;Biblioteca Pública Latina - Antonio Mingote;;  Sección de adultos y sala de lectura:  de lunes  a viernes de  9 a 21 horas. Sábados de 9 a 14 horas.   Sección infantil/juvenil:  de lunes  a viernes de  15 a 21 horas. Sábados de 9 a 14 horas. ;   Sala adultos o principal : capacidad: 108. Puestos de atención: 6.   Internet : capacidad: 25.   Salón de actos : capacidad: 132.   Sala infantil/juvenil : capacidad: 49. Puestos de atención: 1.    Hemeroteca : capacidad: 27.   Ordenadores multimedia : capacidad: 2. Otra información: 1 en adultos 1 en infantil.   Sala-taller : capacidad: 12. Otra información: en este taller hay DVD   Audiovisuales y materiales especiales:  Capacidad: 2  ; Metro: Aluche (línea 5)  Bus: 17, 34, 117  Renfe: Fanjul ;"  Préstamos domiciliarios:  carné gratuito para todas las edades rellenando ficha de inscripción y presentando  DNI , pasaporte o autorización de padres o tutor para menores de 14 años.   Días de cierre de la Biblioteca 2015:      Sábados:  4 de abril; 4, 11, 18 y 25 de julio; 1, 8, 22 y 29 de agosto; 5 y 12 de septiembre; 26 de diciembre   Domingos:  todos   Festivos:  1 y 6 de enero; 19 de marzo, 2 y 3 de abril; 1, 2 y 15 de mayo; 4 de junio; 15 de agosto; 12 de octubre; 9 de noviembre; 8 y 25 de diciembre.    Otros:  24 y 31 de diciembre  ";1;http://www.madrid.es/vgn-ext-templating/v/index.jsp?vgnextchannel=9e4c43db40317010VgnVCM100000dc0ca8c0RCRD&vgnextoid=c73e995a8bf5d010VgnVCM2000000c205a0aRCRD;RAFAEL FINAT;CALLE;V;51;;;;;MADRID;MADRID;28044;LAS AGUILAS;LATINA;434795;4470364;4.037.943.325.312.010;-37.694.457.266.003.900;915 093 625;917 068 193;bib.latina@madrid.org;/contenido/entidadesYorganismos/BibliotecasPublicas; 
1773;Biblioteca Pública Moratalaz;; Sección de adultos  e infantil/juvenil: de lunes a viernes de 9 a 21 horas. Sábados de 9 a 14 horas.  Horario servicio de préstamo y acceso a Internet:  de lunes a viernes de 9 a 20:45 horas. Sábados de 9 a 13:45 horas.  ;   Sala adultos o principal : capacidad: 42.    Internet : capacidad: 8.   Sala infantil/juvenil : capacidad: 32. Puestos de atención: 2.   Hemeroteca : capacidad: 13.   Ordenadores multimedia : capacidad: 1.  ; Metro: Artilleros (línea 9)  Bus: 8, 20, 30, 32, 63, 100, 143, 145 ;"  Préstamo domiciliario:  carné gratutito presentando el  D.N.I  u otro documento que acredite legalmente la identidad personal y, para los menores de 14 años, con autorización del padre, la madre o tutor legal.   Días de cierre de la Biblioteca 2015:     Sábados: 4 de abril; 4, 11, 18 y 25 de julio; 1, 8, 22 y 29 de agosto; 5 y 12 de septiembre; 26 de diciembre  Domingos: todos  Festivos: 1 y 6 de enero; 19 de marzo, 2 y 3 de abril; 1, 2 y 15 de mayo; 4 de junio; 15 de agosto; 12 de octubre; 9 de noviembre; 8 y 25 de diciembre.   Otros: 24 y 31 de diciembre   ";1;http://www.madrid.es/vgn-ext-templating/v/index.jsp?vgnextchannel=9e4c43db40317010VgnVCM100000dc0ca8c0RCRD&vgnextoid=457e995a8bf5d010VgnVCM2000000c205a0aRCRD;CORREGIDOR ALONSO DE TOBAR;CALLE;V;5;;;;;MADRID;MADRID;28030;FONTARRON;MORATALAZ;445000;4473014;40.404.043.465.578.500;-36.494.626.590.824.800;914 394 688;914 370 234;bib.moratalaz@madrid.org;/contenido/entidadesYorganismos/BibliotecasPublicas; 
1757;Biblioteca Pública Municipal Aluche (Latina); La Biblioteca Pública de Aluche se inauguró en junio de 1992 con la asistencia del entonces alcalde D. José María Alvarez del Manzano. Se sitúa en la primera planta del Centro Cultural Fernando de los Ríos, diseñado por el arquitecto José María Guijarro. Desde 1986 y hasta la fecha de su inauguración oficial, se encontraba situada en este mismo centro cultural y planta pero en el ala derecha del edificio y con la mitad de superficie. La ubicación de la biblioteca en el centro cultural en la década de los 80  se decidió porque éste era considerado un elemento aglutinador de la vida asociativa y cultural de los distritos.  ; De lunes a viernes de 8:30 a 21 horas. Festivos cerrados. ;" Accesible a personas con discapacidad física.  Espacios:  Sala de Consulta y Lectura; Zona de publicaciones periódicas; Sala infantil y juvenil.  Servicios:  Préstamo de libros, multimedia y revistas; Préstamo de dispositivos de ayuda a la lectura (lupas para libros y discman para audiolibros); Servicio de Acceso Público a Internet; Zona wifi; Información bibliográfica; Animación a la lectura; Formación de usuarios; Reprografía. "; Metro : Laguna, Casa de Campo, Aluche  RENFE:  Laguna, Aluche   Bus : 25, 31, 138;   Superficie:  712 metros cuadrados   Puestos de lectura:  130   Puestos de Internet:  18   Bibliotecarios:    ;1;http://www.madrid.es/vgn-ext-templating/v/index.jsp?vgnextchannel=9e4c43db40317010VgnVCM100000dc0ca8c0RCRD&vgnextoid=7f0e3d0b5e71c010VgnVCM1000000b205a0aRCRD;CAMARENA;CALLE;V;10;;;;;MADRID;MADRID;28047;ALUCHE;LATINA;435929;4472190;4.039.597.072.367.930;-37.562.716.852.987.800;91 719 89 96;;bpaluche@madrid.es;/contenido/entidadesYorganismos/BibliotecasPublicas; 
1755;Biblioteca Pública Municipal Ana María Matute (Carabanchel);" La Biblioteca Pública Municipal Ana María Matute sustituyó a la antigua Biblioteca Pública Municipal de Carabanchel. La Biblioteca de Carabanchel, sita en la calle de los Hermanos del Moral 15, fue inaugurada el 12 de diciembre de 1981 por el entonces alcalde, Enrique Tierno Galván, contaba con unos 250  m&sup2; . Despues de 32 años de servicio, se traslada a su actual emplazamiento bajo el nombre actual. El proyecto arquitectónico fue encargado al estudio RSP. A la inauguración, el 28 de enero de 2013, asistieron la escritora Ana María Matute y la alcaldesa Ana María Botella.  "; De lunes a viernes de 8:30 a 21 horas. Festivos cerrados. ;" Accesible a personas con discapacidad física.  Espacios:  Sala de consulta y lectura; Salas de trabajo en grupo; Sala de actividades; Zona de publicaciones periódicas; Sala infantil y juvenil.  Servicios:  Préstamo de libros, multimedia y revistas; Préstamo de dispositivos de ayuda a la lectura (lupas para libros y discman para audiolibros); Servicio de telelupa; Servicio de Acceso Público a Internet; Zona wifi; Información bibliográfica; Animación a la lectura; Formación de usuarios; Reprografía. "; Metro : Marqués de Vadillo  Bus:  34, 35, 108, 118, 119 y N7;   Superficie:  3.369 metros cuadrados   Puestos de lectura:  200   Puestos de Internet:  44   Bibliotecarios:    ;1;http://www.madrid.es/vgn-ext-templating/v/index.jsp?vgnextchannel=9e4c43db40317010VgnVCM100000dc0ca8c0RCRD&vgnextoid=628e3d0b5e71c010VgnVCM1000000b205a0aRCRD;DE LOS COMUNEROS DE CASTILLA;CALLE;V;30;;;;;MADRID;MADRID;28019;SAN ISIDRO;CARABANCHEL;438946;4472344;403.975.850.662.447;-37.207.386.328.562.300;"91 588 08 30                                                                                                                                               
";;bpanammatute@madrid.es;/contenido/entidadesYorganismos/BibliotecasPublicas; 
5768564;Biblioteca Pública Municipal Angel González (Latina); La Biblioteca Pública Ángel González se inauguró el 26 de julio de 2010, contando con la presencia de, entre otros, el entonces Alcalde Alberto Ruiz-Gallardón, la Delegada del Área de Las Artes, Alicia Moreno, y la viuda del escritor, Susana Rivera.   El edificio es obra del arquitecto Carlos de Riaño, donde predomina el hormigón y el cristal. A pesar de estar junto a la A5, el aislamiento del entorno se consigue gracias a la utilización de grandes terrazas como elemento constructivo. Tiene su fachada principal orientada hacia la autovía de Extremadura en previsión del soterramiento de la autovía ;" De lunes a viernes de 8:30 a 21 horas; sábados de 9 a 18 horas y domingos de 9 a 14 horas. Los festivos y los fines de semana de agosto, la biblioteca permanecerá cerrada. ";" Accesible a personas con discapacidad física.   Espacios:  Sala de Consulta y Lectura; Sala de actividades; Zona de publicaciones periódicas; Sala infantil y juvenil.   Servicios:  Préstamo de libros, multimedia y revistas; Préstamo de dispositivos de ayuda a la lectura (lupas para libros y discman para audiolibros); Servicio de telelupa; Servicio de Acceso Público a Internet; Zona wifi; Información bibliográfica; Animación a la lectura; Formación de usuarios; Reprografía. "; Metro:  Campamento   Bus:  25, 36, 39, 65, 121, 131, 138, H;   Superficie:  2.811 metros cuadrados   Puestos de lectura:  182   Puestos de Internet:  29   Bibliotecarios:  María Sierra Gómez-Díaz (directora)  ;1;http://www.madrid.es/vgn-ext-templating/v/index.jsp?vgnextchannel=9e4c43db40317010VgnVCM100000dc0ca8c0RCRD&vgnextoid=ec750a2153ef9210VgnVCM2000000c205a0aRCRD;GRANJA DE TORREHERMOSA;CALLE;V;1;;;;;MADRID;MADRID;28024;ALUCHE;LATINA;435063;4472320;40.397.074.625.115.900;-37.664.885.474.841.500;91 512 35 42;;bpangelgonzalez@madrid.es;/contenido/entidadesYorganismos/BibliotecasPublicas; 
1762;Biblioteca Pública Municipal Buenavista (Salamanca);La Biblioteca Pública Municipal Buenavista se encuentra dentro del Centro Cultural homónimo. El edificio que la alberga fue construido durante la  II  República por el Ayuntamiento de Madrid para Casa de Baños, según proyecto de José Lorite y reformado por el arquitecto municipal Salvador Pérez Arroyo en 1982. El cambio de función e inauguración como Centro Cívico tuvo lugar el 30 de abril de 1983 y la Biblioteca abrió sus puertas el 12 marzo de 1984.  La Biblioteca, ocupa uno de los pabellones que alojaron las piletas de las piscinas y sus vestuarios, en concreto, la zona del vaso destinada al baño de los hombres. En la actualidad esta estructura se observa en la sala de lectura y consulta donde los usuarios adultos se sumergen en sus fondos bibliográfícos; De lunes a viernes de 9 a 21 horas. Festivos cerrados. ;" Accesible a personas con discapacidad física.  Espacios:  Sala de Consulta y Lectura; Zona de publicaciones periódicas; Sala infantil y juvenil.   Servicios:  Préstamo de libros, multimedia y revistas; Préstamo de dispositivos de ayuda a la lectura (lupas para libros y discman para audiolibros); Servicio de Acceso Público a Internet; Zona wifi; Información bibliográfica; Animación a la lectura; Formación de usuarios; Reprografía. "; Metro:  Diego de León, Manuel Becerra  Bus:  1, 43, 48, 56, 74, Circular;   Superficie:  371 metros cuadrados   Puestos de lectura:  76   Puestos de Internet:  15  ;1;http://www.madrid.es/vgn-ext-templating/v/index.jsp?vgnextchannel=9e4c43db40317010VgnVCM100000dc0ca8c0RCRD&vgnextoid=c53e3d0b5e71c010VgnVCM1000000b205a0aRCRD;TOREROS;AVENIDA;V;5;;;;;MADRID;MADRID;28028;GUINDALERA;SALAMANCA;443202;4476130;4.043.199.309.720.510;-3.670.929.243.543.710;91 724 08 04;;bpbuenavista@madrid.es;/contenido/entidadesYorganismos/BibliotecasPublicas; 
1745;Biblioteca Pública Municipal Canillejas (San Blas-Canillejas);La Biblioteca Pública Municipal de Canillejas se inauguró el 4 de agosto de 1981 en la tercera planta del edificio que entonces ocupaba la Junta Municipal del Distrito de San Blas, en la calle Torre Arias. Ocho años después se trasladó al edificio que ocupa hoy, en la calle Boltaña, justo enfrente de su ubicación anterior y en pleno núcleo comercial del barrio de Canillejas. Su reapertura al público, en las nuevas instalaciones, se produjo el 15 de marzo de 1989, compartiendo edificio con el Centro Cultural Buero Vallejo. ; De lunes a viernes de 8:30 a 21 horas. Festivos cerrados. ;"  Espacios:  Sala de Consulta y Lectura; Zona de publicaciones periódicas; Sala infantil y juvenil.  Servicios:  Préstamo de libros, multimedia y revistas; Préstamo de dispositivos de ayuda a la lectura (lupas para libros y discman para audiolibros); Servicio de Acceso Público a Internet; Zona wifi; Información bibliográfica; Animación a la lectura; Formación de usuarios; Reprografía. "; Metro:  Canillejas, Torre Arias (Línea 5).  Bus:  77, 105, 140;   Superficie:  466 metros cuadrados   Puestos de lectura:  98   Puestos de Internet:  6   Bibliotecarios:  María Rosario Cabezuelo Jiménez (directora)  ;0;http://www.madrid.es/vgn-ext-templating/v/index.jsp?vgnextchannel=9e4c43db40317010VgnVCM100000dc0ca8c0RCRD&vgnextoid=eb9e995a8bf5d010VgnVCM2000000c205a0aRCRD;BOLTAÑA;CALLE;NUM;23;;;;EN CENTRO CULTURAL BUERO VALLEJO;MADRID;MADRID;28022;CANILLEJAS;SAN BLAS-CANILLEJAS;448229;4477693;4.044.640.229.188.280;-36.117.933.204.271.000;91 741 11 34;;bpcanillejas@madrid.es;/contenido/entidadesYorganismos/BibliotecasPublicas; 
1794;Biblioteca Pública Municipal Ciudad Lineal (Ciudad Lineal);" La Biblioteca de Ciudad Lineal se inauguró en febrero de 1993 asistiendo al acto el Alcalde, José M&ordf; Alvarez del Manzano, y la entonces Concejal de Cultura, Esperanza Aguirre.   Se encuentra dentro del Centro Cultural Príncipe de Asturias, en la primera planta. Su construcción se realizó para dar servicio a la zona y sustituir a la anterior biblioteca que había en los locales de un edificio de viviendas. Desde entonces ha sido ampliada tan solo una vez, en 50  m&sup2; , en el año 2004, afectando esta obra a su distribución interna."; De lunes a viernes de 8:30 a 21 horas. Festivos cerrados. ;" Accesible a personas con discapacidad física.   Espacios:  Sala de Consulta y Lectura; Zona de publicaciones periódicas; Sala infantil y juvenil.   Servicios:  Préstamo de libros, multimedia y revistas; Préstamo de dispositivos de ayuda a la lectura (lupas para libros y discman para audiolibros); Servicio de Acceso Público a Internet; Zona wifi; Información bibliográfica; Animación a la lectura; Formación de usuarios; Reprografía. "; Metro:  Ciudad Lineal   Bus : 4, 38, 48, 70, 77, 105, 109;   Superficie:  483 metros cuadrados   Puestos de lectura:  112   Puestos de Internet:  10   Bibliotecarios:    ;1;http://www.madrid.es/vgn-ext-templating/v/index.jsp?vgnextchannel=9e4c43db40317010VgnVCM100000dc0ca8c0RCRD&vgnextoid=82ce995a8bf5d010VgnVCM2000000c205a0aRCRD;HERMANOS GARCIA NOBLEJAS;CALLE;V;14;;;;;MADRID;MADRID;28037;PUEBLO NUEVO;CIUDAD LINEAL;446054;4476600;4.043.641.736.294.720;-3.637.346.971.302.500;915 887 566;;bpciudadlineal@madrid.es;/contenido/entidadesYorganismos/BibliotecasPublicas; 
1882;Biblioteca Pública Municipal Conde Duque (Centro); La Biblioteca Pública Conde Duque se inaugura en los años 90, cuando se traslada a este edificio la Biblioteca Municipal situada en el actual emplazamiento del Museo de Historia de Madrid, en la calle Fuencarral, separándose la Biblioteca Pública de la Biblioteca Histórica, que habían estado juntas hasta entonces.  El Cuartel de Conde Duque se reformó en 2011, obra llevada a cabo por el arquitecto Carlos de Riaño, reinaugurándose la biblioteca al año siguiente, en un primer momento fusionada con la Biblioteca Musical Víctor Espinós, de la que posteriormente se separaría. Con la reforma ganó en amplitud y homogeneidad con el resto de la red, ya que anteriormente no contaba con sala infantil ni multimedia. ; De lunes a viernes de 8:30 a 21 horas. Festivos cerrados. ;" Accesible a personas con discapacidad física.   Espacios:  Sala de Consulta y Lectura; Préstamo de libros, CDs, CD-Rom y DVD; Zona de publicaciones periódicas.  Servicios:  Servicio de Acceso Público a Internet; Zona wifi; Información bibliográfica; Animación a la lectura; Formación de usuarios; Sala infantil; Reprografía. "; Metro:  Ventura Rodríguez, Plaza de España, San Bernardo y Noviciado.  Bus : 1, 2, 7, 21, 44, 74, 147, Circular, Minibús M-2;   Superficie:  5.870 metros cuadrados   Puestos de lectura:  227   Puestos de Internet:  26   Bibliotecarios : María Teresa Artigas Cano de Santayana (directora)  ;1;http://www.madrid.es/vgn-ext-templating/v/index.jsp?vgnextchannel=9e4c43db40317010VgnVCM100000dc0ca8c0RCRD&vgnextoid=13ec3d0b5e71c010VgnVCM1000000b205a0aRCRD;CONDE DUQUE;CALLE;V;9;;;;;MADRID;MADRID;28015;UNIVERSIDAD;CENTRO;439833;4475645;4.042.738.668.300.470;-37.105.999.955.473.600;91 480 14 39;;bpcondeduque@madrid.es;/contenido/entidadesYorganismos/BibliotecasPublicas; 
51188;Biblioteca Pública Municipal Dámaso Alonso (Chamartín); La biblioteca se abrió al público en mayo de 1999 denominándose Biblioteca Mateo Inurria, por estar situada en dicha calle. En 2008, por acuerdo plenario, pasó a llamarse Biblioteca Dámaso Alonso. Y es que este poeta vivió en el número 25 de la calle Alberto Alcocer, en una casita con huerta y jardín situada en su momento a las afueras de Madrid, en Chamartín de la Rosa. En cuanto a los orígenes de la biblioteca, en 1997 la sede del diario  Ya  se convierte en sede del Barclays Bank. A cambio, la entidad cede una parcela al Ayuntamiento para la construcción de una biblioteca, que entregó ya equipada. En 2008 se amplió el vestíbulo, se instaló un ascensor y se cerró una de las dos escaleras. En su lugar se colocó un lucernario para iluminar la sala de lectura. ; De lunes a viernes de 8:30 a 21 horas. Festivos cerrados. ;" Accesible a personas con discapacidad física.  Espacios:  Sala de Consulta y Lectura; Zona de publicaciones periódicas; Sala infantil y juvenil.  Servicios:  Préstamo de libros, multimedia y revistas; Préstamo de dispositivos de ayuda a la lectura (lupas para libros y discman para audiolibros); Servicio de telelupa; Servicio de Acceso Público a Internet; Zona wifi; Información bibliográfica; Animación a la lectura; Formación de usuarios; Reprografía. "; Metro:  Plaza de Castilla , Duque de Pastrana   Bus:  70, 107, 129, 174;   Superficie:  808 metros cuadrados   Puestos de lectura:  129   Puestos de Internet:  8   Bibliotecarios:  Carmen Manzano Guadaño (directora)  ;1;http://www.madrid.es/vgn-ext-templating/v/index.jsp?vgnextchannel=9e4c43db40317010VgnVCM100000dc0ca8c0RCRD&vgnextoid=5870007f8441f010VgnVCM1000000b205a0aRCRD;MANUEL FERRERO;CALLE;V;1;;;;;MADRID;MADRID;28036;CASTILLA;CHAMARTIN;442072;4480075;40.467.453.379.213.100;-36.846.112.774.442.700;91 350 31 50;;bpdamasoalonso@madrid.es;/contenido/entidadesYorganismos/BibliotecasPublicas; 
6893633;Biblioteca Pública Municipal Eugenio Trías. Casa de Fieras de El Retiro; La Biblioteca Pública Eugenio Trías-Casa fue inaugurada el 29 de abril de 2013. El edificio que alberga la biblioteca fue originariamente parte de las instalaciones que la Casa de Fieras tenía en el Parque de El Retiro, construido en tiempos de Fernando  VII . El proyecto para esta nueva biblioteca, promovido  por la entonces Dirección General de Patrimonio Histórico, fue redactado por los arquitectos Jaime Nadal y Sebastián Araujo e incluye la rehabilitación de los dos grandes pabellones de la antigua Casa de Fieras, uno longitudinal de gran dimensión y otro transversal de menor tamaño así como la construcción de un pabellón de nueva planta imprescindible para cumplir con el  programa bibliotecario. ;" De lunes a viernes de 8:30 a 21 horas; sábados de 9 a 18 horas y domingos de 9 a 14 horas. Los festivos y los fines de semana de agosto, la biblioteca permanecerá cerrada. ";" Accesible a personas con discapacidad física.  Espacios:  Sala de consulta y lectura; Salas de trabajo en grupo; Sala polivalente; Sala de publicaciones periódicas; Sala infantil; Sala de prelectores; Sala juvenil; Sala especializada en medio ambiente.   Servicios:  Préstamo de libros, multimedia y revistas; Servicio de Acceso Público a Internet; Zona wifi; Información bibliográfica; Animación a la lectura; Formación de usuarios; Reprografía. "; Metro:  Ibiza  Bus:  20, 26, 63, 152 y Circular;   Superficie:  3.794 metros cuadrados   Puestos de lectura:  185   Puestos de Internet:  39   Bibliotecarios:  Estela Gonzalo Muñoz (directora)  ;1;http://www.madrid.es/vgn-ext-templating/v/index.jsp?vgnextchannel=9e4c43db40317010VgnVCM100000dc0ca8c0RCRD&vgnextoid=e791bed05ceed310VgnVCM1000000b205a0aRCRD;FERNAN NUÑEZ;PASEO;V;24;;;;;MADRID;MADRID;28009;LOS JERONIMOS;RETIRO;442454;4474428;404.166.091.081.099;-36.795.930.368.034.800;91 480 48 38;;bpeugeniotrias@madrid.es;/contenido/entidadesYorganismos/BibliotecasPublicas; 
167128;Biblioteca Pública Municipal Francisco Ayala (Vicálvaro);  La Biblioteca Francisco Ayala es una biblioteca ubicada en el barrio de Valdebernardo, en el distrito de Vicálvaro. Se inauguró en el año 2005. El edificio de dos plantas está situado en el eje que vertebra el barrio, en la planta inferior se situan los servicios de acceso a Internet y préstamo de adultos. En la planta superior se encuentra la sala infantil, la sala de lectura y la sala de actividades.; De lunes a viernes de 8:30 a 21 horas. Festivos cerrados. ;" Accesible a personas con discapacidad física.   Espacios : Sala de Consulta y Lectura; Préstamo de libros, multimedia y publicaciones periódicas; Préstamo de dispositivos de ayuda a la lectura (lupas para libros y discman para audiolibros); Servicio de Telelupa; Zona de publicaciones periódicas.   Servicios :  Servicio de Acceso Público a Internet; Zona wifi; Información bibliográfica; Animación a la lectura; Formación de usuario; Sala infantil y juvenil; Reprografía. "; Metro:  Valdebernardo   Bus:  8, 71, 130;   Superficie:  1.600 metros cuadrados   Puestos de lectura:  205   Puestos de Internet:  11   Bibliotecarios:  Fernando Millán Sánchez (director)  ;1;http://www.madrid.es/vgn-ext-templating/v/index.jsp?vgnextchannel=9e4c43db40317010VgnVCM100000dc0ca8c0RCRD&vgnextoid=f05279262ef5d010VgnVCM1000000b205a0aRCRD;INDALECIO PRIETO;BULEVAR;V;21;;;;;MADRID;MADRID;28032;VALDEBERNARDO;VICALVARO;447388;4472529;4.039.982.891.410.400;-3.621.281.890.570.370;91 301 64 66;;bpfranciscoayala@madrid.es;/contenido/entidadesYorganismos/BibliotecasPublicas; 
1760;Biblioteca Pública Municipal Francisco Ibáñez (Chamartín);  La Biblioteca Pública Francisco Ibáñez se encuentra situada en el Centro Cultural Mantuano, en el barrio de Chamartín. Proviene de la antigua Biblioteca de Chamartín, que fue inaugurada en 1983. En el año 2015, después de una profunda remodelación, cambió su denominación por la actual de Francisco Ibáñez. La alcaldesa, Ana María Botella, inauguró las nuevas instalaciones y se proyectó  un vídeo  del guionista y dibujante de cómic que le da nombre en agradecimiento.; De lunes a viernes de 8:30 a 21 horas. Festivos cerrados. ;" Accesible a personas con discapacidad física.  Espacios:  Sala de Consulta y Lectura;  Zona de publicaciones periódicas; Sala infantil y juvenil.   Servicios:  Préstamo de libros; multimedia y revistas; Préstamo de dispositivos de ayuda a la lectura (lupas para libros y discman para audiolibros); Servicio de Acceso Público a Internet; Zona wifi; Información bibliográfica; Animación a la lectura; Formación de usuarios; Reprografía. "; Metro:  Concha Espina, Prosperidad   Bus:  9, 16, 29, 52;   Superficie:  543 metros cuadrados   Puestos de lectura:  94   Puestos de Internet:  24   Bibliotecarios:    ;1;http://www.madrid.es/vgn-ext-templating/v/index.jsp?vgnextchannel=9e4c43db40317010VgnVCM100000dc0ca8c0RCRD&vgnextoid=0fce3d0b5e71c010VgnVCM1000000b205a0aRCRD;MANTUANO;CALLE;V;51;;;;;MADRID;MADRID;28002;CIUDAD JARDIN;CHAMARTIN;442766;4477922;4.044.810.636.195.710;-36.762.309.620.097.300;91 510 37 56;;bpfranciscoibanez@madrid.es;/contenido/entidadesYorganismos/BibliotecasPublicas; 
1754;Biblioteca Pública Municipal Gabriel García Márquez (Usera);  La Biblioteca Pública Municipal Gabriel García Marquez es heredera de la antigua biblioteca de Orcasur, abierta al público en 1983. Esta biblioteca se situó en el interior del Centro Cultural de Orcasur. En 2014 fue remodelada profundamente a la vez que se cambió el nombre por el de Gabriel García Marquez.; De lunes a viernes de 8:30 a 21 horas. Festivos cerrados. ;" Accesible a personas con discapacidad física.   Espacios:  Sala de consulta y lectura; Salas de trabajo en grupo; Sala de actividades; Zona de publicaciones periódicas; Sala infantil y juvenil.  Servicios:  Préstamo de libros, multimedia y revistas; Servicio de Acceso Público a Internet; Zona wifi; Información bibliográfica; Animación a la lectura; Formación de usuarios; Reprografía. ";  Bus:  78, 116   Metro:  San Fermín - Orcasur  Renfe:  Orcasitas ;   Superficie:  1395 metros cuadrados   Puestos de lectura:  104   Puestos de Internet:  27   Bibliotecarios:  Luis Iglesias Cadarso  ;1;http://www.madrid.es/vgn-ext-templating/v/index.jsp?vgnextchannel=9e4c43db40317010VgnVCM100000dc0ca8c0RCRD&vgnextoid=e4bf3d0b5e71c010VgnVCM1000000b205a0aRCRD;PUEBLO;PLAZA;NUM;2;;;;CENTRO CULTURAL ORCASUR;MADRID;MADRID;28041;ORCASUR;USERA;440582;4468910;40.366.768.324.753.400;-3.701.141.063.083.800;"91 318 86 91                                 
";;bpgarciamarquez@madrid.es;/contenido/entidadesYorganismos/BibliotecasPublicas; 
1748;Biblioteca Pública Municipal Gerardo Diego (Villa de Vallecas);La Biblioteca de Vallecas Villa se abrió en 1987, en el local que había sido hasta entonces la escuela infantil del pueblo de Vallecas. Al transformarse en biblioteca, tomó el nombre del maestro de la antigua escuela -Francisco Fatou-, acudiendo a la inauguración su viuda, quien contribuyó con una importante aportación económica para la ampliación de sus fondos. En 1995 se trasladó desde la calle Manuel Vélez -donde quedó el Centro Cultural Francisco Fatou- a la vecina calle Monte Aya, en la que se inauguró un nuevo edificio en enero de 1996.   Su nueva sede se construyó sobre el solar del antiguo Cine Madrid. La práctica totalidad del edificio, salvo unas pequeñas dependencias destinadas a escuela de adultos, está dedicado a biblioteca. Es allí donde recibió su actual denominación como Biblioteca Pública Municipal Gerardo Diego.; De lunes a viernes de 8:30 a 21 horas. Festivos cerrados. ;"  Accesible a personas con discapacidad física. Espacios:  Sala de Consulta y Lectura; Zona de publicaciones periódicas; Sala infantil y juvenil.   Servicios:  Préstamo de libros, multimedia y revistas (colección de libros en rumano); Préstamo de dispositivos de ayuda a la lectura (lupas para libros y discman para audiolibros); Servicio de telelupa; Servicio de Acceso Público a Internet; Zona wifi; Información bibliográfica; Animación a la lectura; Formación de usuarios; Reprografía. "; Metro:  Villa de Vallecas (línea 1)  Bus:  54, 58, 103, 130, 142 ;   Superficie:  1.601 metros cuadrados   Puestos de lectura:  196   Puestos de Internet:  18   Bibliotecarios:  Javier Quevedo Arcos (director)  ;1;http://www.madrid.es/vgn-ext-templating/v/index.jsp?vgnextchannel=9e4c43db40317010VgnVCM100000dc0ca8c0RCRD&vgnextoid=ca903d0b5e71c010VgnVCM1000000b205a0aRCRD;MONTE AYA;CALLE;NUM;12;;;;;MADRID;MADRID;28031;CASCO HISTORICO VALLECAS;VILLA DE VALLECAS;447248;4470096;4.037.790.196.240.430;-36.227.296.605.039.500;91 380 66 33;;bpgerardodiego@madrid.es;/contenido/entidadesYorganismos/BibliotecasPublicas; 
79941;Biblioteca Pública Municipal Gloria Fuertes (Barajas);La Biblioteca Pública Municipal Gloria Fuertes fue inaugurada en octubre del año 2001 asistiendo al acto el entonces alcalde, José María Álvarez del Manzano. El edificio es un proyecto de nueva planta de la arquitecta Carmen Blanco Hernández para albergar un centro cultural y la única biblioteca que, en la actualidad, presta servicio a los vecinos del distrito de Barajas.  Desde los grandes ventanales que recorren la primera y segunda planta, donde se ubica la biblioteca, se aprecian los restos del reconstruido castillo de los Zapata, único que se conserva en el término municipal de Madrid, y un extenso olivar que pone límite al moderno parque Juan Carlos I.; De lunes a viernes de 8:30 a 21 horas. Festivos cerrados. ;" Accesible a personas con discapacidad física.  Espacios:  Sala de Consulta y Lectura; Zona de publicaciones periódicas; Sala infantil y juvenil.   Servicios:  Préstamo de libros, multimedia y revistas; Préstamo de dispositivos de ayuda a la lectura (lupas para libros y discman para audiolibros); Servicio de telelupa; Servicio de Acceso Público a Internet; Zona wifi; Información bibliográfica; Animación a la lectura; Formación de usuarios; Reprografía. "; Metro:  Alameda de Osuna   Bus:  105, 112, 115;"   Superficie:  672 metros cuadrados   Puestos de lectura:  119   Puestos de Internet:  9   Bibliotecarios:  M&ordf; Victoria Lázaro Castaño (directora)  ";1;http://www.madrid.es/vgn-ext-templating/v/index.jsp?vgnextchannel=9e4c43db40317010VgnVCM100000dc0ca8c0RCRD&vgnextoid=1f64c2c6e051c010VgnVCM2000000c205a0aRCRD;LOGROÑO;AVENIDA;V;179;;;;;MADRID;MADRID;28042;CORRALEJOS;BARAJAS;449770;4479254;4.046.055.947.228.690;-35.937.461.811.785.300;91 312 02 58;;bpgloriafuertes@madrid.es;/contenido/entidadesYorganismos/BibliotecasPublicas; 
1750;Biblioteca Pública Municipal Huerta de la Salud (Hortaleza);  La Biblioteca Pública Municipal Huerta de la Salud fue inaugurada en 1995, reformándose y ampliándose profundamente entre los años 2006 y 2007.; De lunes a viernes de 8:30 a 21 horas. Festivos cerrados. ;" Accesible a personas con discapacidad física.  Espacios:  Sala de Consulta y Lectura; Zona de publicaciones periódicas; Sala infantil y juvenil.   Servicios:  Préstamo de libros, multimedia y revistas; Préstamo de dispositivos de ayuda a la lectura (lupas para libros y discman para audiolibros); Servicio de Acceso Público a Internet; Zona wifi; Información bibliográfica; Animación a la lectura; Formación de usuarios; Reprografía. "; Metro:  Parque de Santa María   Bus:  9, 72, 107, 201;   Superficie : 450 metros cuadrados    Puestos de lectura : 77   Puestos de Internet:  7   ;1;http://www.madrid.es/vgn-ext-templating/v/index.jsp?vgnextchannel=9e4c43db40317010VgnVCM100000dc0ca8c0RCRD&vgnextoid=9c5879262ef5d010VgnVCM1000000b205a0aRCRD;MAR DE LAS ANTILLAS;CALLE;V;10;;;;;MADRID;MADRID;28033;PINAR DEL REY;HORTALEZA;445295;4480968;4.047.571.688.103.060;-364.667.257.750.353;91 764 52 43;;bphuertasalud@madrid.es;/contenido/entidadesYorganismos/BibliotecasPublicas; 
51849;Biblioteca Pública Municipal Islas Filipinas (Ciudad Lineal); La Biblioteca Pública Municipal Islas Filipinas fue inaugurada en el año 2000 y su origen se remonta a la Biblioteca Pública de Quintana, que estaba situada en el Centro Cultural Sambara. En el año 2000 se trasladó a su actual ubicación donde continúa hasta la fecha, reformándose para hacerla accesible entre otoño de 2007 y primavera de 2009, reabriendo sus puertas en marzo de este año.  La biblioteca se sitúa en lo que era el antiguo Colegio Islas Filipinas, del que recibe su nombre, prestando servicio a los ciudadanos de la zona, cuyo eje principal es la calle Marqués de Corbera. ; De lunes a viernes de 8:30 a 21 horas. Festivos cerrados. ;" Accesible a personas con discapacidad física.  Espacios:  Sala de Consulta y Lectura; Zona de publicaciones periódicas; Sala infantil y juvenil.   Servicios:  Préstamo de libros, multimedia y revistas; Préstamo de dispositivos de ayuda a la lectura (lupas para libros y discman para audiolibros); Servicio de telelupa; Servicio de Acceso Público a Internet; Zona wifi;  Información bibliográfica; Animación a la lectura; Formación de usuarios; Reprografía. "; Bus:  líneas 15, 28, 110, 113, 210  Metro:  La Elipa (línea 2);   Superficie:  880 metros cuadrados   Puestos de lectura:  102   Puestos de Internet:  10   Bibliotecarios:  Mercedes de Diego Páez (directora)  ;1;http://www.madrid.es/vgn-ext-templating/v/index.jsp?vgnextchannel=9e4c43db40317010VgnVCM100000dc0ca8c0RCRD&vgnextoid=697c598d1351c010VgnVCM1000000b205a0aRCRD;NUESTRA SEÑORA DEL VILLAR;CALLE;NUM;6;;;;;MADRID;MADRID;28017;VENTAS;CIUDAD LINEAL;444814;4475167;4.042.342.659.084.210;-3.651.841.641.389.480;91 403 63 22;;bpislasfilipinas@madrid.es;/contenido/entidadesYorganismos/BibliotecasPublicas; 
5975465;Biblioteca Pública Municipal Iván de Vargas (Centro);  La Biblioteca Pública Municipal Iván de Vargas fue inaugurada el 28 de febrero de 2011 y toma su nombre del antiguo edificio de viviendas que se levantaba en el mismo solar, que podría datar de principios del siglo XVII. El linaje de los Vargas, procedente de la época de la Reconquista, es uno de los más insignes de la historia de la ciudad.   La Biblioteca Iván de Vargas es la primera que incorpora una sección especializada de referencia sobre Madrid ,  que permitirá conocer e investigar la historia, las tradiciones, el urbanismo o la gastronomía de la región.  ;" De lunes a viernes de 8:30 a 21 horas; sábados de 9 a 18 horas y domingos de 9 a 14 horas. Los festivos y los fines de semana de agosto ,  la biblioteca permanecerá cerrada. ";" Accesible a personas con discapacidad física.  Espacios:  Sala de Consulta y Lectura; Sala de actividades; Zona de publicaciones periódicas; Sala infantil y juvenil; Sala de Internet; Sala Madrid.   Servicios:  Préstamo de libros, multimedia y revistas; Préstamo de dispositivos de ayuda a la lectura (lupas para libros y discman para audiolibros); Servicio de telelupa; Servicio de Acceso Público a Internet; Zona wifi; Información bibliográfica; Animación a la lectura; Formación de usuarios; Reprografía. ";  Metro:  Sol, Latina, Ópera  Cercanías : Sol  Bus:  3, 17, 18, 23, 31, 50, 65 ;   Superficie:  2.884 metros cuadrados   Puestos de lectura:  164   Puestos de Internet:  18   Bibliotecarios:  Pilar Garrido Salcedo (directora)  ;1;http://www.madrid.es/vgn-ext-templating/v/index.jsp?vgnextchannel=9e4c43db40317010VgnVCM100000dc0ca8c0RCRD&vgnextoid=0b60e92be3c5e210VgnVCM1000000b205a0aRCRD;SAN JUSTO;CALLE;V;5;;;;;MADRID;MADRID;28005;PALACIO;CENTRO;439884;4474170;4.041.410.290.844.660;-37.098.591.212.735.800;917 586 211;;bpivandevargas@madrid.es;/contenido/entidadesYorganismos/BibliotecasPublicas; 
115056;Biblioteca Pública Municipal José Hierro (San Blas-Canillejas); La Biblioteca Pública Municipal José Hierro fue inaugurada en 2003, asistiendo a la inauguración la viuda del escritor y el entonces alcalde José María Álvarez del Manzano. Se trata de un edificio próximo a la Junta de Distrito, con la que comparte un amplio espacio ajardinado. ; De lunes a viernes de 8:30 a 21 horas. Festivos cerrados. ;" Accesible a personas con discapacidad física.  Espacios:  Sala de Consulta y Lectura; Sala de actividades; Zona de publicaciones periódicas; Sala infantil y juvenil; Comiteca.   Servicios:  Préstamo de libros, multimedia y revistas (colección de libros en rumano); Préstamo de dispositivos de ayuda a la lectura (lupas para libros y discman para audiolibros); Servicio de telelupa; Servicio de Acceso Público a Internet; Zona wifi; Información bibliográfica; Animación a la lectura; Formación de usuarios; Reprografía.  "; Metro:  Las Musas   Bus:  38, 48, 140, 153   Autobuses interurbanos:  286, 288, 289;   Superficie:  1.866 metros cuadrados   Puestos de lectura:  224   Puestos de Internet:  13   Bibliotecarios:  María José Hervás Fernández (directora)  ;1;http://www.madrid.es/vgn-ext-templating/v/index.jsp?vgnextchannel=9e4c43db40317010VgnVCM100000dc0ca8c0RCRD&vgnextoid=338879262ef5d010VgnVCM1000000b205a0aRCRD;MARIA SEVILLA DIAGO;CALLE;V;15;;;;;MADRID;MADRID;28022;ROSAS;SAN BLAS-CANILLEJAS;448323;4476237;40.433.291.625.973.600;-36.105.662.311.927.400;91 313 55 28;;bpjosehierro@madrid.es;/contenido/entidadesYorganismos/BibliotecasPublicas; 
1790;Biblioteca Pública Municipal José Saramago (Fuencarral-El Pardo); La Biblioteca Municipal José Saramago se inauguró en noviembre de 1990, con el nombre de Biblioteca de la Vaguada. El origen es la antigua Biblioteca de Peñagrande situada en el Centro Cultural Rafael de León. Las instalaciones eran insuficientes para uno de los distritos más grandes de Madrid, y gracias al proyecto del Centro Cívico de La Vaguada se subsanó, por un lado la falta de espacio y por otro se mejoró su ubicación al situarse junto al Centro Comercial La Vaguada. El edificio forma parte de un proyecto diseñado en 1982 por los arquitectos Javier San José Marqués y Jordi Parcerisas Vázquez. La organización del edificio se realizó por medio de una secuencia de arcos que unían entre sí los diferentes espacios. En el año 2011 cambio su denominación por la actual de José Saramago. ; De lunes a viernes de 8:30 a 21 horas. Festivos cerrados. ;" Accesible a personas con discapacidad física (sólo en la planta baja).   Espacios:  Sala de Consulta y Lectura; Zona de publicaciones periódicas; Sala infantil y juvenil.   Servicios:  Préstamo de libros, multimedia y revistas; Préstamo de dispositivos de ayuda a la lectura (lupas para libros y discman para audiolibros); Servicio de telelupa; Servicio de Acceso Público a Internet; Zona wifi; Información bibliográfica; Animación a la lectura; Formación de usuarios; Reprografía. "; Metro:  Barrio del Pilar, Peñagrande   Bus:  49, 83, 128, 132, 134, 137;   Superficie:  1.276 metros cuadrados   Puestos de lectura:  204   Puestos de Internet:  17   Bibliotecarios:  Montserrat Cillero Perfecto (directora)   Antigua Biblioteca La Vaguada ;1;http://www.madrid.es/vgn-ext-templating/v/index.jsp?vgnextchannel=9e4c43db40317010VgnVCM100000dc0ca8c0RCRD&vgnextoid=70d879262ef5d010VgnVCM1000000b205a0aRCRD;MONFORTE DE LEMOS;AVENIDA;V;38;;;;;MADRID;MADRID;28029;EL PILAR;FUENCARRAL-EL PARDO;439977;4481329;4.047.860.087.334.550;-37.094.408.342.979.900;91 588 68 91;;bpjosesaramago@madrid.es;/contenido/entidadesYorganismos/BibliotecasPublicas; 
1756;Biblioteca Pública Municipal La Chata (Carabanchel);"La Biblioteca Pública La Chata abrió sus puertas por primera vez al público el Día de la Biblioteca, 24 de octubre, de 2005. El 13 de agosto de 2006 el Alcalde Ruiz-Gallardón, acompañado por la Concejala de Las Artes, Alicia Moreno, procedió a su inauguración oficial en un breve acto.  El nombre de la biblioteca, La Chata, alude a Isabel de Borbón, hermana de Alfonso  XII , que acudía regularmente a Carabanchel por ser una gran amante de los toros y a la Finca Vista Alegre que pertenecía a la familia real. También alude al nombre popular de la plaza de toros de Vista Alegre, denominada así por ser muy baja, achatada. Por lo tanto es un nombre muy &ldquo;carabanchelero&rdquo;."; De lunes a viernes de 8:30 a 21 horas. Festivos cerrados. ;" Accesible a personas con discapacidad física.  Espacios:  Sala de Consulta y Lectura; Zona de publicaciones periódicas; Sala infantil y juvenil.   Servicios:  Préstamo de libros, multimedia y revistas (colección de libros en rumano); Préstamo de dispositivos de ayuda a la lectura (lupas para libros y discman para audiolibros); Servicio de telelupa; Servicio de Acceso Público a Internet; Zona wifi; Información bibliográfica; Animación a la lectura; Formación de usuarios; Reprografía.  "; Metro:  Eugenia de Montijo, Carabanchel   Bus:  34 , 35;   Superficie:  1.600 metros cuadrados   Puestos de lectura:  223   Puestos de Internet:  13   Bibliotecarios:  Hortensia Barderas Álvarez (directora)  ;1;http://www.madrid.es/vgn-ext-templating/v/index.jsp?vgnextchannel=9e4c43db40317010VgnVCM100000dc0ca8c0RCRD&vgnextoid=d9a879262ef5d010VgnVCM1000000b205a0aRCRD;GENERAL RICARDOS;CALLE;NUM;252;;;;Antiguo Mercado de Carabanchel;MADRID;MADRID;28025;VISTA ALEGRE;CARABANCHEL;437123;4470774;4.038.330.593.504.340;-37.420.633.861.175.700;91 422 05 33;;bplachata@madrid.es;/contenido/entidadesYorganismos/BibliotecasPublicas; 
185595;Biblioteca Pública Municipal Manuel Vázquez Montalbán (Tetuán);  La Biblioteca Manuel Vázquez Montalbán se abrió al público en agosto de 2006. Se trata de un edificio diseñado por la arquitecta Isabel Huete Chugunowa, en el que comparten instalaciones la biblioteca y una Escuela Municipal de Música.; De lunes a viernes de 8:30 a 21 horas. Festivos cerrados. ;" Accesible a personas con discapacidad física.  Espacios:  Sala de Consulta y Lectura; Zona de publicaciones periódicas; Sala infantil y juvenil.   Servicios:  Préstamo de libros, multimedia y revistas; Préstamo de dispositivos de ayuda a la lectura (lupas para libros y discman para audiolibros); Servicio de telelupa; Servicio de Acceso Público a Internet; Zona wifi; Información bibliográfica; Animación a la lectura; Formación de usuarios; Reprografía. "; Metro:  Francos Rodríguez   Bus:  44, 64, 126, 127, 128, 132;   Superficie:  1.372 metros cuadrados   Puestos de lectura:  151   Puestos de Internet:  11   Bibliotecarios:  María Ángeles Salvador Durántez (directora)  ;1;http://www.madrid.es/vgn-ext-templating/v/index.jsp?vgnextchannel=9e4c43db40317010VgnVCM100000dc0ca8c0RCRD&vgnextoid=b5ca89e2c9e5d010VgnVCM1000000b205a0aRCRD;FRANCOS RODRIGUEZ;CALLE;V;67;;;;;MADRID;MADRID;28039;BELLAS VISTAS;TETUAN;439865;4478987;4.045.749.513.485.950;-3.710.539.712.535.910;"91 398 07 23                                                                                                                                 
91 398 07 26";;bpvazquezmontalban@madrid.es;/contenido/entidadesYorganismos/BibliotecasPublicas; 
7697128;Biblioteca Pública Municipal Mario Vargas Llosa (Centro);La Biblioteca Mario Vargas Llosa fue inaugurada por el Premio Nobel de Literatura que le da su nombre. La biblioteca tiene su origen en la remodelación del complejo Barceló que incluye un mercado, que sustituye al que existía antiguamente, un polideportivo, un parking y la biblioteca. Su construcción y apertura era una antigua reivindicación de los vecinos que reclamaban una biblioteca en el distrito Centro que diera servicio a los barrios de Justicia, Universidad y parte de Chamberí.  Al estar en un centro neurálgico de la cultura madrileña, junto al Museo de Historia de Madrid y el Museo Romántico, numerosas librerías, varias universidades, etc. la Biblioteca Mario Vargas Llosa se constituye como un centro de encuentro cultural, artístico y social del barrio.; De lunes a viernes de 8:30 a 21 horas. Festivos cerrados. ;" Accesible a personas con discapacidad física.   Espacios:  Sala de consulta y lectura; Sala de trabajo en grupo; Sala de actividades; Zona de publicaciones periódicas; Sala infantil y juvenil.  Servicios:  Préstamo de libros, multimedia y revistas; Servicio de Acceso Público a Internet; Zona wifi; Información bibliográfica; Animación a la lectura; Formación de usuarios; Reprografía. "; Metro : Alonso Martínez, Tribunal.  Bus:  3, 21, 37, 40, 147, 149;   Superficie:  1.860,70 metros cuadrados   Puestos de lectura:  126   Puestos de Internet:  42   Bibliotecarios:    ;1;http://www.madrid.es/vgn-ext-templating/v/index.jsp?vgnextchannel=9e4c43db40317010VgnVCM100000dc0ca8c0RCRD&vgnextoid=6c4dbc2658739410VgnVCM2000000c205a0aRCRD;BARCELO;CALLE;V;2;;;;;MADRID;MADRID;28004;JUSTICIA;CENTRO;440755;4475555;40.426.642.215.368.100;-3.699.722.994.908.340;"914 802 433                                                                                                                                     
";;bpvargasllosa@madrid.es;/contenido/entidadesYorganismos/BibliotecasPublicas; 
1759;Biblioteca Pública Municipal María Zambrano (Tetuán); La Biblioteca Pública Municipal María Zambrano se inauguró el 29 de octubre de 2010 dentro del Centro Cultural Eduardo Úrculo (inaugurado a su vez el 15 de octubre de 2009), en el barrio de Ventilla, dentro del distrito de Tetuán en Madrid. Al acto acudieron el alcalde Alberto Ruiz Gallardón y la Delegada del Área de Las Artes Alicia Moreno. Esta biblioteca es consecuencia de la necesidad de ampliar la Biblioteca de Tetuán, situada en el antiguo edificio de la Junta Municipal del mismo nombre (Bravo Murillo 357).   La Biblioteca de Tetuán fue inaugurada en 1982 por el alcalde Enrique Tierno Galván, dentro del edificio de la Junta Municipal, y fue una de las primeras de la red municipal de Bibliotecas del Ayuntamiento de Madrid. Era heredera de la biblioteca creada en la nueva Casa Consistorial del antiguo pueblo de Chamartín de la Rosa en 1934. ; De lunes a viernes de 8:30 a 21 horas. Festivos cerrados. ;" Accesible a personas con discapacidad física.  Espacios:  Sala de Consulta y Lectura; Zona de publicaciones periódicas; Sala infantil y juvenil.   Servicios:  Préstamo de libros, E-books, multimedia y revistas; Préstamo de dispositivos de ayuda a la lectura (lupas para libros y discman para audiolibros); Servicio de Acceso Público a Internet; Zona wifi; Información bibliográfica; Animación a la lectura; Formación de usuarios; Reprografía. ";  Metro:  Ventilla  Bus:  42 ;   Superficie:  1.551 metros cuadrados   Puestos de lectura:  123   Puestos de Internet:  21   Bibliotecarios:  Elena Pinedo López (directora)  ;1;http://www.madrid.es/vgn-ext-templating/v/index.jsp?vgnextchannel=9e4c43db40317010VgnVCM100000dc0ca8c0RCRD&vgnextoid=74703d0b5e71c010VgnVCM1000000b205a0aRCRD;DONOSO;PLAZA;V;5;;;;En el Centro Cultural Eduardo Úrculo;MADRID;MADRID;28029;ALMENARA;TETUAN;440967;4480259;4.046.903.299.144.090;-36.976.620.067.964.900;91 733 90 43;;bpmariazambrano@madrid.es;/contenido/entidadesYorganismos/BibliotecasPublicas; 
1752;Biblioteca Pública Municipal Miguel Delibes (Moratalaz);" La Biblioteca Pública Municipal de Moratalaz fue inaugurada en el año 1986. Su primera ubicación fue dentro del parque Darwin, en unas edificaciones que la Inmobiliaria Urbis utilizó como pisos piloto para la venta de las viviendas y donó luego al Ayuntamiento. La primera instalación se concibió como un quiosco de libros de préstamo. Posteriormente se le añadió otro módulo de los pisos piloto. Con el desarrollo del distrito, se decide la construcción de una nueva biblioteca. El proyecto, firmado por la arquitecta municipal Isabel Huete Chugunowa, comprende cuatro plantas con un total de 2.012  m&sup2; . Se inauguró el 18 de octubre del año 2001, en acto presidido por D. José María Álvarez del Manzano, alcalde del Ayuntamiento de Madrid. En 2010 se le da el nombre del escritor Miguel Delibes. "; De lunes a viernes de 8:30 a 21 horas. Festivos cerrado. ;" Accesible a personas con discapacidad física.  Espacios:  Sala de Consulta y Lectura; Zona de publicaciones periódicas; Sala infantil y juvenil.   Servicios:  Préstamo de libros, multimedia y revistas; Préstamo de dispositivos de ayuda a la lectura (lupas para libros y discman para audiolibros); Servicio de telelupa; Servicio de Acceso Público a Internet; Zona wifi; Información bibliográfica; Animación a la lectura; Formación de usuarios; Reprografía. "; Metro:  Vinateros   Bus:  20, 30, 32, 71, 113;   Superficie:  1.894 metros cuadrados   Puestos de lectura:  258   Puestos de Internet:  14   Bibliotecarios:  Alfonso Rodríguez Ferrer (director)  ;1;http://www.madrid.es/vgn-ext-templating/v/index.jsp?vgnextchannel=9e4c43db40317010VgnVCM100000dc0ca8c0RCRD&vgnextoid=9e8f3d0b5e71c010VgnVCM1000000b205a0aRCRD;ARROYO BELINCOSO;CALLE;NUM;11;;;;JUNTO A CENTRO CULTURAL EDUARDO CHILLIDA;MADRID;MADRID;28030;MEDIA LEGUA;MORATALAZ;444706;4473646;4.040.971.737.692.920;-36.529.822.109.115.100;91 328 73 00;;bpmigueldelibes@madrid.es;/contenido/entidadesYorganismos/BibliotecasPublicas; 
186714;Biblioteca Pública Municipal Pablo Neruda (Ciudad Lineal);" La Biblioteca Pablo Neruda fue inaugurada en septiembre de 2006 por la Concejala del Área de Las Artes. La entrada a la biblioteca está presidida por un conjunto escultórico dedicado a Pablo Neruda, del escultor Julio López Hernández. Concebido en altorrelieve y en bronce, representa al escritor escribiendo en su mesa, junto con otros elementos entresacados de su casa de &quot;Isla Negra&quot;. La biblioteca es un edificio de nueva planta, exento, de tres alturas, que comparte dependencias con un Centro Día. La entrada es diáfana y luminosa y en ella se encuentra el mostrador de préstamo, la zona multimedia, la hemeroteca, la comiteca y el fondo bibliográfico. La segunda planta alberga una sección juvenil, la sala infantil, la sala de referencia y el despacho de bibliotecarios. En la tercera está la sala polivalente. "; De lunes a viernes de 8:30 a 21 horas. Festivos cerrado. ;" Accesible a personas con discapacidad física.  Espacios:  Sala de Consulta y Lectura; Sala de actividades; Zona de publicaciones periódicas; Sala infantil y juvenil.   Servicios:  Préstamo de libros, multimedia y revistas (colección de libros en rumano); Préstamo de dispositivos de ayuda a la lectura (lupas para libros y discman para audiolibros); Servicio de telelupa; Servicio de Acceso Público a Internet; Zona wifi; Información bibliográfica; Animación a la lectura; Formación de usuarios; Reprografía. ";  Metro:  Ascao   Bus:  28, 109 ;   Superficie:  1.500 metros cuadrados   Puestos de lectura:  198   Puestos de Internet:  14   Bibliotecarios:  Belén Meruelo González (directora)  ;1;http://www.madrid.es/vgn-ext-templating/v/index.jsp?vgnextchannel=9e4c43db40317010VgnVCM100000dc0ca8c0RCRD&vgnextoid=d5c548d20675e010VgnVCM1000000b205a0aRCRD;ASCAO;CALLE;V;4;;;;;MADRID;MADRID;28017;PUEBLO NUEVO;CIUDAD LINEAL;445680;4475825;4.042.941.133.441.140;-36.416.899.839.787.600;91 406 14 72;;bppabloneruda@madrid.es;/contenido/entidadesYorganismos/BibliotecasPublicas; 
1753;Biblioteca Pública Municipal Portazgo (Puente de Vallecas); La Biblioteca de Portazgo fue inaugurada en 1983 compartiendo espacio con el edificio del Centro Cultural Alberto Sánchez. Fue una de las bibliotecas pioneras en formar parte de la incipiente red de Bibliotecas Públicas del Ayuntamiento de Madrid, hace más de 30 años. En 2006 fue remodelada y ampliada incorporando espacios del Centro Cultural. Actualmente cuenta con dos plantas, en la planta baja encontramos la sala infantil, un pequeño espacio para la prensa y el mostrador de préstamo, además del servicio de Internet. La planta primera funciona como sala de lectura y en ella se encuentra el fondo de adultos ; De lunes a viernes de 8:30 a 21 horas. Festivos cerrado. ;"  Accesible a personas con discapacidad física.  Espacios:  Sala de Consulta y Lectura; Zona de publicaciones periódicas; Sala infantil y juvenil.   Servicios:  Préstamo de libros, multimedia y revistas; Préstamo de dispositivos de ayuda a la lectura (lupas para libros y discman para audiolibros); Servicio de telelupa; servicio de acceso público a Internet; Zona wifi; Información bibliográfica; Animación a la lectura; Formación de usuarios; Reprografía. "; Metro:  Portazgo, Buenos Aires (línea 1)  Bus:  54, 57, 58, 103, 136, 141, 143;"   Superficie:  550 metros cuadrados   Puestos de lectura:  116   Puestos de Internet:  7   Bibliotecarios:  M&ordf; Isabel Baenas Pérez  ";1;http://www.madrid.es/vgn-ext-templating/v/index.jsp?vgnextchannel=9e4c43db40317010VgnVCM100000dc0ca8c0RCRD&vgnextoid=89a40a47f441f010VgnVCM2000000c205a0aRCRD;CANTALAPIEDRA;CALLE;V;11;;;;;MADRID;MADRID;28038;NUMANCIA;PUENTE DE VALLECAS;444487;4471826;4.039.330.714.657.690;-36.554.041.181.586.000;91 757 03 23;;bpportazgo@madrid.es;/contenido/entidadesYorganismos/BibliotecasPublicas; 
1792;Biblioteca Pública Municipal Pozo del Tío Raimundo (Puente de Vallecas);  La Biblioteca pública Pozo del Tío Raimundo fue inaugurada en el año 1991 y comparte edificio con el Centro Cultural Pozo del Tío Raimundo.; De lunes a viernes de 8:30 a 21 horas. Festivos cerrado. ;" Accesible a personas con discapacidad física.  Espacios:  Sala de Consulta y Lectura; Zona de publicaciones periódicas; Sala infantil y juvenil.   Servicios:  Préstamo de libros, multimedia y revistas; Préstamo de dispositivos de ayuda a la lectura (lupas para libros y discman para audiolibros); Servicio de Acceso Público a Internet; Zona wifi; Información bibliográfica; Animación a la lectura; Formación de usuarios; Reprografía. "; Bus:  24, 102   Renfe:  El Pozo;   Superficie:  269 metros cuadrados   Puestos de lectura:  146   Puestos de Internet:  7   Bibliotecarios:  Eleuterio Gutiérrez Morcillo (director)  ;1;http://www.madrid.es/vgn-ext-templating/v/index.jsp?vgnextchannel=9e4c43db40317010VgnVCM100000dc0ca8c0RCRD&vgnextoid=d7203d0b5e71c010VgnVCM1000000b205a0aRCRD;GLORIETAS;AVENIDA;NUM;19;;;;EN C. CULTURAL POZO TIO RAIMUNDO;MADRID;MADRID;28053;ENTREVIAS;PUENTE DE VALLECAS;444059;4469640;403.735.856.436.473;-36.602.546.064.905.300;91 507 07 34;;bppozotr@madrid.es;/contenido/entidadesYorganismos/BibliotecasPublicas; 
1763;Biblioteca Pública Municipal Pío Baroja (Arganzuela); La Biblioteca Pío Baroja fue inaugurada en febrero de 1993. En realidad se trataba de un traslado de la Biblioteca de Arganzuela ubicada entonces en el edificio Casa del Reloj (antiguo pabellón central de Matadero) donde compartía espacio con el centro cultural. La construcción de un nuevo edificio coincidió con la ejecución de la operación urbanística Pasillo Verde Ferroviario. El edificio de la biblioteca está distribuido en tres plantas, dos de acceso público. En la primera planta, se encuentran la recepción, servicio de préstamo y sala infantil. La segunda planta es un semisótano donde se ubican la sala de lectura, las publicaciones periódicas y los puestos de consulta de Internet. El elemento mas llamativo del edificio es la claraboya que desde la cubierta crea un patio acristalado y suministra luz a la sala de lectura.  ; De lunes a viernes de 8:30 a 21 horas. Festivos cerrado. ;" Accesible a personas con discapacidad física.  Espacios:  Sala de Consulta y Lectura; Zona de publicaciones periódicas; Sala infantil y juvenil.   Servicios:  Préstamo de libros, multimedia y revistas; Préstamo de dispositivos de ayuda a la lectura (lupas para libros y discman para audiolibros); Servicio de telelupa; Servicio de Acceso Público a Internet; Zona wifi; Información bibliográfica; Animación a la lectura; Formación de usuarios; Reprografía. "; Metro:  Pirámides (Línea 5).  Bus:  18, 23, 34, 35, 36, 116, 118, 119   Renfe:  Pirámides;   Superficie:  1.454 metros cuadrados   Puestos de lectura:  162   Puestos de Internet:  10   Bibliotecarios:  Teresa Salazar Rincón (directora)  ;1;http://www.madrid.es/vgn-ext-templating/v/index.jsp?vgnextchannel=9e4c43db40317010VgnVCM100000dc0ca8c0RCRD&vgnextoid=17f879262ef5d010VgnVCM1000000b205a0aRCRD;ARGANDA;CALLE;NUM;12;;;;;MADRID;MADRID;28005;ACACIAS;ARGANZUELA;440076;4472607;4.040.003.652.682.000;-37.074.488.154.950.500;91 474 16 03;;bppiobaroja@madrid.es;/contenido/entidadesYorganismos/BibliotecasPublicas; 
1746;Biblioteca Pública Municipal San Blas (San Blas-Canillejas);La Biblioteca Pública Municipal de San Blas se abrió al público el 10 de mayo de 1987 y al acto de inauguración acudió el entonces alcalde Juan Barranco. El edificio que ocupa actualmente fue un Seminario de Sacerdotes Migrantes, rehabilitado tras muchos años de abandono y un incendio, que lo dejó en condiciones críticas. El Ayuntamiento lo reformó para instalar en él el Centro Cultural Antonio Machado, dentro del que se encuentra la biblioteca. La Biblioteca se sitúa en la segunda planta. El edificio tiene forma redonda y 3 plantas. Tiene un Centro de Mayores y una Escuela de Música. Lo preside un busto de D. Antonio Machado.; De lunes a viernes de 8:30 a 21 horas. Festivos cerrado. ;" Accesible a personas con discapacidad física.   Espacios:  Sala de Consulta y Lectura; Zona de publicaciones periódicas; Sala infantil y juvenil.   Servicios:  Préstamo de libros, multimedia y revistas; Préstamo de dispositivos de ayuda a la lectura (lupas para libros y discman para audiolibros); Servicio de Acceso Público a Internet; Zona wifi; Información bibliográfica; Animación a la lectura; Formación de usuarios; Reprografía. "; Bus:  4, 38, 48, 70, 106, 140  Metro:  Alsacia (Línea 2);   Superficie:  312 metros cuadrados   Puestos de lectura:  125   Puestos de Internet:  8   Bibliotecarios:  Jacqueline Martine Saint-Pé (directora)  ;1;http://www.madrid.es/vgn-ext-templating/v/index.jsp?vgnextchannel=9e4c43db40317010VgnVCM100000dc0ca8c0RCRD&vgnextoid=2e403d0b5e71c010VgnVCM1000000b205a0aRCRD;SAN ROMAN DEL VALLE;CALLE;NUM;8;;;;CENTRO CULTURAL ANTONIO MACHADO;MADRID;MADRID;28037;ARCOS;SAN BLAS-CANILLEJAS;447358;4474793;40.420.231.627.534.900;-36.218.113.860.909.000;91 313 52 97;;bpsanblas@madrid.es;/contenido/entidadesYorganismos/BibliotecasPublicas; 
1761;Biblioteca Pública Municipal Vallecas (Puente de Vallecas);" El 13 de noviembre de 1933 se inauguró la Biblioteca del pueblo de Vallecas, presidida por su alcalde, Amós Acero Pérez. En 1937 fue cerrada debido a la Guerra Civil, abriéndose de nuevo en febrero de 1940. Pero poco a poco fue cayendo en un estado de abandono hasta que en 1976 se decidió su cierre para efectuar obras de remodelación. El 24 de abril de 1980, Enrique Tierno Galván reinauguró la biblioteca, abriéndose al público el 12 de mayo de ese mismo año. La Biblioteca de Vallecas siempre ha estado ubicada en un espacio independiente, el mismo desde 1933. Tras la reforma iniciada en 1978, ha habido otra en 1990. En esta última, se abrió una sala de lectura para adultos de 174,81  m&sup2; , debido a la cesión de dos habitaciones del antiguo Juzgado de Vallecas. "; De lunes a viernes de 8:30 a 21 horas. Festivos cerrado. ;"  Espacios:  Sala de Consulta y Lectura; Zona de publicaciones periódicas; Sala infantil y juvenil.   Servicios:  Préstamo de libros, multimedia y revistas; Préstamo de dispositivos de ayuda a la lectura (lupas para libros y discman para audiolibros); Servicio de Acceso Público a Internet; Zona wifi; Información bibliográfica; Animación a la lectura; Formación de usuarios; Reprografía. "; Metro:  Nueva Numancia   Bus:  10, 24, 54, 57, 58, 111, 136, 310;   Superficie:  367 metros cuadrados   Puestos de lectura:  133   Puestos de Internet:  6   Bibliotecarios:  Paloma Gil Alonso (directora)  ;0;http://www.madrid.es/vgn-ext-templating/v/index.jsp?vgnextchannel=9e4c43db40317010VgnVCM100000dc0ca8c0RCRD&vgnextoid=11c03d0b5e71c010VgnVCM1000000b205a0aRCRD;PUERTO DEL MONASTERIO;CALLE;NUM;1;;;;;MADRID;MADRID;28053;SAN DIEGO;PUENTE DE VALLECAS;443626;4472022;4.039.501.488.341.380;-3.665.565.995.938.500;91 588 60 51;;bpvallecas@madrid.es;/contenido/entidadesYorganismos/BibliotecasPublicas; 
1747;Biblioteca Pública Municipal Vicálvaro;  La Biblioteca Pública de Vicálvaro fue inaugurada el 23 de mayo de 1987.; De lunes a viernes de 8:30 a 21 horas. Festivos cerrado. ;" Accesible a personas con discapacidad física.  Espacios:  Sala de Consulta y Lectura; Zona de publicaciones periódicas; Sala infantil y juvenil.   Servicios:  Préstamo de libros, multimedia y revistas; Préstamo de dispositivos de ayuda a la lectura (lupas para libros y discman para audiolibros); Servicio de Acceso Público a Internet; Zona wifi; Información bibliográfica; Animación a la lectura; Formación de usuarios; Reprografía. "; Metro : Vicálvaro   Bus : 4, 100, 106, 130   Renfe : Vicálvaro;   Superficie:  547 metros cuadrados   Puestos de lectura:  94   Puestos de Internet:  10   Bibliotecarios:  Julia Tebar González (directora)  ;1;http://www.madrid.es/vgn-ext-templating/v/index.jsp?vgnextchannel=9e4c43db40317010VgnVCM100000dc0ca8c0RCRD&vgnextoid=67e03d0b5e71c010VgnVCM1000000b205a0aRCRD;VILLARDONDIEGO;CALLE;NUM;36;;;;CENTRO CULTURAL EL MADROÑO;MADRID;MADRID;28032;CASCO HISTORICO VICALVARO;VICALVARO;448466;4473127;40.405.283.650.744.300;-36.086.278.232.922.800;91 775 31 43;;bpvicalvaro@madrid.es;/contenido/entidadesYorganismos/BibliotecasPublicas; 
1774;Biblioteca Pública Retiro;;  Sección de adultos:  de lunes a viernes de 9 a 21 horas. Sábados de 9 a 14 horas. Servicio de préstamo y acceso a Internet: de lunes a viernes de 9 a 20:45 horas. Sábados de 9 a 13:45 horas.    Sección infantil:  de lunes a viernes de 9 a 21 horas. Sábados de 9 a 14 horas. Servicio de préstamo y acceso a Internet: de lunes a viernes de 15 a 20:45 horas. Sábados de 9 a 13:45 horas.    Sala de lectura:  de lunes a viernes de 9 a 21 horas. Sábados de 9 a 14 horas. ;   Sala adultos o principal : capacidad: 86   Hemeroteca : capacidad: 24   Internet : capacidad: 15   Sala polivalente : capacidad: 8   Sala-taller : capacidad: 18   Ordenadores multimedia : capacidad: 2   Salón de actos : capacidad: 74   Zona de trabajos o servicios internos : puestos de atención: 13   Sala infantil/juvenil : capacidad: 24   Sala General (única):  capacidad: 39  ; Metro: Pacífico (líneas 1, 6), Conde de Casal (línea 6)  Bus: 8, 10, 24, 37, 54, 56, 57, 136, 141, 156, 310 ;"  Días de cierre de la Biblioteca 2015:     Sábados: 4 de abril; 4, 11, 18 y 25 de julio; 1, 8, 22 y 29 de agosto; 5 y 12 de septiembre; 26 de diciembre  Domingos: todos  Festivos: 1 y 6 de enero; 19 de marzo, 2 y 3 de abril; 1, 2 y 15 de mayo; 4 de junio; 15 de agosto; 12 de octubre; 9 de noviembre; 8 y 25 de diciembre.   Otros: 24 y 31 de diciembre  ";1;http://www.madrid.es/vgn-ext-templating/v/index.jsp?vgnextchannel=9e4c43db40317010VgnVCM100000dc0ca8c0RCRD&vgnextoid=44213d0b5e71c010VgnVCM1000000b205a0aRCRD;DOCTOR ESQUERDO;CALLE;V;189;;;;;MADRID;MADRID;28007;ADELFAS;RETIRO;443051;4472976;4.040.354.316.970.940;-3.672.367.247.007.090;915 019 146 ;915 018 130;bib.retiro@madrid.org;/contenido/entidadesYorganismos/BibliotecasPublicas; 
1777;Biblioteca Pública Ruiz Egea;;  Sección de adultos:  de lunes a viernes de 9 a 21 horas.   Sección infantil/juvenil:  de lunes a viernes de 9 a 21 horas. ;   Hemeroteca : capacidad 8   Internet : capacidad 6  ; Metro: Cuatro Caminos (líneas 1, 2 y 6)  Bus: 3, 37, 45, 64, 124, 127, 128, 149, C1, C2, F ;  Préstamo domiciliario:  carné gratuito presentando el  D.N.I  u otro documento que acredite legalmente la identidad personal y, para los menores de 14 años, con autorización del padre, la madre o tutor legal ;1;http://www.madrid.es/vgn-ext-templating/v/index.jsp?vgnextchannel=9e4c43db40317010VgnVCM100000dc0ca8c0RCRD&vgnextoid=b2413d0b5e71c010VgnVCM1000000b205a0aRCRD;RAIMUNDO FERNANDEZ VILLAVERDE;CALLE;V;6;;;;;MADRID;MADRID;28003;RIOS ROSAS;CHAMBERI;440504;4477772;40.446.595.985.821.700;-37.028.897.237.155.600;915 349 029;915 337 809;bib.ruizegea@madrid.org;/contenido/entidadesYorganismos/BibliotecasPublicas; 
1765;Biblioteca Pública Salamanca - Manuel Alvar;;"   Sección de adultos:  de lunes a viernes de 9 a 21 horas (Servicios bibliotecarios hasta las 20:45 horas).   Sección infantil/juvenil:  de lunes a viernes de 15 a 21 horas (Servicios bibliotecarios hasta las 20:45 horas).   Fines de semana y festivos:  de 11 a 19 horas  (Servicios bibliotecarios hasta las 18:45)   De 14:30 a 15:30 horas no se asignarán préstamos de libros ni acceso a internet pero sí continuará abierta la sala de lectura. Los días 24 y 31 de diciembre horario de 9 a 14 horas   Cerrada:  fines de semana y festivos de agosto; 1 enero; 1 mayo y 25 diciembre   ";   Sala adultos o principal : Capacidad: 136. Puestos de atención: 2.    Audiovisuales y materiales especiales : capacidad: 6.   Hemeroteca : capacidad: 50. Puestos de atención: 3.   Sala infantil : capacidad: 32. Puestos de atención: 3.   Sala juvenil : capacidad: 58.   Internet : capacidad: 34. Puestos de atención: 1.   Ordenadores multimedia : capacidad: 6.   Salón de actos : capacidad: 78.  ; Metro: Diego de León (líneas 4, 5, 6)  Bus: 1, 12, 43, 48, 56, 74, C1, C2 ;  Préstamo domiciliario:  carné gratuito presentando el  D.N.I  u otro documento que acredite legalmente la identidad personal y, para los menores de 14 años, con autorización del padre, la madre o tutor legal ;1;http://www.madrid.es/vgn-ext-templating/v/index.jsp?vgnextchannel=9e4c43db40317010VgnVCM100000dc0ca8c0RCRD&vgnextoid=d51979262ef5d010VgnVCM1000000b205a0aRCRD;AZCONA;CALLE;V;42;;;;;MADRID;MADRID;28028;GUINDALERA;SALAMANCA;443369;4476395;4.043.437.388.116.330;-3.668.960.389.290.820;917 263 701 ;913 555 425;bib.salamanca@madrid.org;/contenido/entidadesYorganismos/BibliotecasPublicas; 
123303;Biblioteca Pública Usera - José Hierro;;  Sección de adultos:  de lunes a viernes de 9 a 21 horas.    Sección infantil/juvenil:  de lunes a viernes de 15 a 21 horas.    Servicio de préstamo y acceso a Internet:  de 15 a 20:45 horas.    Sección de adultos y sección infantil/juvenil:  fines de semana y festivos, 11 a 19 horas. Servicio de préstamo y acceso a Internet de 11 a 14:30 y de 15:30 a 18:45 horas.   Horario especial 24 y 31 de diciembre : abierta de 9 a 14 horas   Cerrada los días:  1 de enero, 1 de mayo, 25 de diciembre y fines de semana y festivos de agosto.  ;   Sala adultos o principal : capacidad: 188   Hemeroteca : capacidad: 26   Internet : capacidad: 47   Ordenadores multimedia : capacidad: 4   Sala infantil/juvenil : capacidad: 52. Puestos de atención: 3.    Sala polivalente : capacidad: 30.    Sala-taller : capacidad: 10. Otra información: Hay 3 salas.   Audiovisuales y materiales especiales : capacidad: 3.  ; Metro: Plaza Elíptica (líneas 6, 11)  Bus: 6, 60, 81 ;  Préstamo domiciliario:  carné gratuito presentando el  D.N.I  u otro documento que acredite legalmente la identidad personal y, para los menores de 14 años, con autorización del padre, la madre o tutor legal ;1;http://www.madrid.es/vgn-ext-templating/v/index.jsp?vgnextchannel=9e4c43db40317010VgnVCM100000dc0ca8c0RCRD&vgnextoid=943979262ef5d010VgnVCM1000000b205a0aRCRD;RAFAELA YBARRA;AVENIDA;V;43;;;;;MADRID;MADRID;28026;PRADOLONGO;USERA;439790;4470593;4.038.187.274.336.690;-3.710.628.092.812.140;914 229 501;914 691 901;bib.usera@madrid.org;/contenido/entidadesYorganismos/BibliotecasPublicas; 
1800;Biblioteca Pública Vallecas;;  Sección general,  sección infantil y juvenil,  hemeroteca    De lunes a viernes de 9 a 21 horas.   Sábados de 9 a 14 horas  ;; Metro: Miguel Hernández (línea 1)  Bus: 10, 54, 57, 58, 103, 142, 143, 144 ;"  Préstamo domiciliario:  Carné gratuito presentando el  D.N.I  u otro documento que acredite legalmente la identidad personal y, para los menores de 14 años, con autorización del padre, la madre o tutor legal   Días de cierre de la Biblioteca 2015:     Sábados: 4 de abril; 4, 11, 18 y 25 de julio; 1, 8, 22 y 29 de agosto; 5 y 12 de septiembre; 26 de diciembre  Domingos: todos  Festivos: 1 y 6 de enero; 19 de marzo, 2 y 3 de abril; 1, 2 y 15 de mayo; 4 de junio; 15 de agosto; 12 de octubre; 9 de noviembre; 8 y 25 de diciembre.   Otros: 24 y 31 de diciembre  ";1;http://www.madrid.es/vgn-ext-templating/v/index.jsp?vgnextchannel=9e4c43db40317010VgnVCM100000dc0ca8c0RCRD&vgnextoid=535979262ef5d010VgnVCM1000000b205a0aRCRD;RAFAEL ALBERTI;AVENIDA;V;36;;;;;MADRID;MADRID;28018;PALOMERAS SURESTE;PUENTE DE VALLECAS;445539;4470840;4.038.449.423.079.660;-36.429.247.082.087.700;"913 033 195                                    
";913 804 153;bib.vallecas@madrid.org;/contenido/entidadesYorganismos/BibliotecasPublicas; 
181101;Biblioteca Pública Villa de Vallecas - Luis Martín Santos;;  De lunes a viernes:  de 9 a 21 horas. No se asignarán préstamos ni acceso a Internet desde las 20:45 horas   Fines de semana y festivos:  de  11 a 19 horas. No se asignarán préstamos ni acceso a Internet desde las 14:30 a las 15:30 horas y desde las 18:45 hasta la hora de cierre   Navidad:  Días 24 y 31 de diciembre, de 9 a 14 horas   Agosto:  de lunes a viernes de 9 a 21 horas.    Cerrado:  1 de enero, 1 de mayo, fines de semana y festivos de agosto y 25 de diciembre ;   Sala adultos o principal : capacidad: 85. Condiciones de acceso: libre. Puestos de atención: 3   Sala infantil/juvenil : capacidad: 54. Condiciones de acceso: libre. Puestos de atención:    Internet : capacidad: 28. Puestos de atención: 3. Otra información: Puestos repartidos en las diferentes salas de la biblioteca   Hemeroteca : capacidad: 20. Condiciones de acceso: libre   Depósitos    Zona de trabajos o servicios internos : Capacidad: 4    Sala polivalente : capacidad: 30. Otra información: Sala de audiovisuales y aula de formación   Sala-taller : capacidad: 15   Otras instalaciones : puestos de atención: 3. Otra información: vestíbulo  ; Metro: Villa de Vallecas (línea 1), Sierra de Guadalupe (línea 1)  Bus: 58, 63, 145  Cercanías: Vallecas ;  Préstamo domiciliario:  carné gratuito presentando el  D.N.I   u otro documento que acredite legalmente la identidad personal y, para los menores de 14 años, con autorización del padre, la madre o tutor legal ;1;http://www.madrid.es/vgn-ext-templating/v/index.jsp?vgnextchannel=9e4c43db40317010VgnVCM100000dc0ca8c0RCRD&vgnextoid=09ac38d60b41c010VgnVCM2000000c205a0aRCRD;ANTONIO MARIA SEGOVIA;PLAZA;V;2;;;;;MADRID;MADRID;28031;SANTA EUGENIA;VILLA DE VALLECAS;448017;4470434;4.038.099.532.598.780;-36.136.987.435.192.200;912 760 231;913 316 455;bib.villavallecas@madrid.org;/contenido/entidadesYorganismos/BibliotecasPublicas; 
86719;Biblioteca Pública Villaverde - María Moliner;;  Sección de adultos, infantil y juvenil, sección de periódicos y revistas: de lunes a viernes de 9 a 21 horas. Sábados de 9 a 14 horas.  Horario de servicio de préstamo y acceso a Internet: de lunes a viernes de 9 a 20:45 horas. Sábados de 9 a 13:45 horas.   ;   Sala adultos o principal : capacidad: 167. Adaptados para discapacitados:    Hemeroteca : capacidad: 24. Adaptados para discapacitados: 4 puestos de lectura.   Internet : capacidad: 41.   Sala infantil/juvenil : capacidad: 121. Adapt.discapacitados: 4 puestos de lectura.   Ordenadores multimedia : capacidad: 6.   Salón de actos : capacidad: 85.   Sala polivalente : capacidad: 20.  ; Metro: Villaverde Alto (línea 3)   Bus: 22, 76, 86, 130, 131  Renfe: Puente Alcocer ;"  Préstamo domiciliario:  carné gratuito presentando el  D.N.I  y otro documento que acredite legalmente la identidad personal y, para los menores de 14 años, con autorización del padre, la madre o tutor legal   Días de cierre de la Biblioteca 2014:      Sábados:  4 de abril; 4, 11, 18 y 25 de julio; 1, 8, 22, 29 de agosto; 5 y 12 de septiembre; 26 de diciembre   Domingos:  todos   Festivos:  1 y 6 de enero; 19 de marzo; 2 y 3 de abril; 1, 2 y 15 de mayo; 4 de junio; 15 de agosto; 12 de octubre; 9 de noviembre; 8 y 25 de diciembre   Otros:  24 y 31 de diciembre  ";1;http://www.madrid.es/vgn-ext-templating/v/index.jsp?vgnextchannel=9e4c43db40317010VgnVCM100000dc0ca8c0RCRD&vgnextoid=127979262ef5d010VgnVCM1000000b205a0aRCRD;VILLALONSO;CALLE;V;16;;;;;MADRID;MADRID;28021;SAN ANDRES;VILLAVERDE;439804;4467001;40.349.515.086.848.300;-37.101.234.920.009.300;917 230 194  ;917 979 458;bib.villaverde@madrid.org;/contenido/entidadesYorganismos/BibliotecasPublicas; 
108154;Biblioteca Regional de Madrid Joaquín Leguina;;" De lunes a viernes de 9 a 21 horas   Cerrado en 2015 :   1 y 6 de enero; 19 de marzo; 2 y 3 de abril; 1 y 15 de mayo; 4 de junio; 12 de octubre; 9 de noviembre; 8, 24, 25 y 31 de diciembre  ";   Sala adultos o principal : capacidad: 107. Puestos de atención: 4.    Audiovisuales y materiales especiales : capacidad: 58. Puestos de atención: 2.   Hemeroteca : capacidad: 62. Puestos de atención: 2.    Internet : capacidad: 60. Puestos de atención: 4.   Fondo antiguo : capacidad: 20. Puestos de atención: 2.    Ordenadores multimedia : capacidad: 4.   Zona de trabajos o servicios internos    Salón de actos : capacidad: 145. Adapt.discapacitados: 5.    Sala polivalente    Depósitos    Otras instalaciones : puestos de atención: 2.   ; Metro: Delicias (línea 3  Bus: 8, 102  Renfe: Delicias ; Unicamente préstamo en sala ;1;http://www.madrid.es/vgn-ext-templating/v/index.jsp?vgnextchannel=9e4c43db40317010VgnVCM100000dc0ca8c0RCRD&vgnextoid=d09979262ef5d010VgnVCM1000000b205a0aRCRD;RAMIREZ DE PRADO;CALLE;V;3;;;;;MADRID;MADRID;28045;DELICIAS;ARGANZUELA;441552;4472580;40.399.898.401.147.500;-36.900.541.585.894.700;917 208 850 / 917 208 860 ;917 208 890;biblio.regional@madrid.org;/contenido/entidadesYorganismos/BibliotecasPublicas; 
1788;Casa San Cristobal;;  De lunes a viernes de 9 a 21 horas  Sábados de 10 a 14 horas   ;  Bibiblioteca con sala infantil y bebeteca y sala informática adultos e informática infantil  Aulas de formación equipadas con recursos digitales  Espacio para mayores.    ; Metro: San Cristóbal (línea 3)  Bus: 59, 79  Renfe: San Cristóbal de los Angeles ;  Requisitos de acceso    Carné del centro. Es gratuito y se obtiene de manera instantánea presentado  DNI  o equivalente  Los menores de 8 años acompañados deben ir acompañados.  Los menores de más de 8 años requieren autorización del padre / madre o tutor para obtener el carné del centro    Puestos de lectura    160 para adultos  40 infantiles  ;0;http://www.madrid.es/vgn-ext-templating/v/index.jsp?vgnextchannel=9e4c43db40317010VgnVCM100000dc0ca8c0RCRD&vgnextoid=dcdb3d0b5e71c010VgnVCM1000000b205a0aRCRD;ROCAFORT;CALLE;V;101;;;;;MADRID;MADRID;28021;SAN CRISTOBAL;VILLAVERDE;441778;4466201;4.034.244.856.729.780;-3.686.807.481.597.240;917 966 048;;bsancristobal@gecesa.es;/contenido/entidadesYorganismos/BibliotecasPublicas; 
103331;Centro Social y Cultural la Casa Encendida; Edificio de carácter monumental. De estilo neomudéjar, fue diseñado por el arquitecto Fernando Arbós e inaugurado en el año 1913. Cuenta con más de 6.000 metros cuadrados de instalaciones divididas en 4 plantas y una azotea. ;  De lunes a domingo de 10 a 22 horas (todos los días del año, excepto festividades nacionales y de la Comunidad de Madrid)  Exposiciones: de 10 a 21:45 horas  ;   Biblioteca  (consulta catálogo  http://catalogo.bibliotecas.obrasocialcajamadrid.es/ )   Sala de consulta y Hemeroteca: de lunes a domingos, de 10 a 21:15 horas  Mediateca y Sala de trabajo Ofimática: de lunes a domingos, de 10 a 21:15 horas  Biblioteca joven: de lunes a viernes, de 10 a 20:30, sábados y domingos de 10 a 13:30  Bebeteca: sábados y domingos de 10 a 13:30 horas     Estudio multimedia : cuenta con equipos profesionales para la edición de video con Final Cut Studio, Premiere, etc. Su uso tendrá un precio de cinco a ocho euros por turno de cinco horas dependiendo del tipo de asistencia técnica.   Laboratorio de radio:  dispone de un equipo completo de grabación y equipamiento profesional. Su uso tendrá un precio de diez euros por turnos de cinco horas.   Laboratorio fotográfico    Tienda solidaria:  consultar horario   Cafetería:  todos los días, excepto festivos, de 10 a 21:45 horas  ; Metro: Embajadores (línea 3), Lavapies (línea 3), Atocha (línea 1)   Bus: 27, 34, 36, 41, 68, 69, 119   Renfe: Embajadores ;;1;http://www.madrid.es/vgn-ext-templating/v/index.jsp?vgnextchannel=9e4c43db40317010VgnVCM100000dc0ca8c0RCRD&vgnextoid=c27f8899fc81c010VgnVCM1000000b205a0aRCRD;VALENCIA;RONDA;V;2;;;;;MADRID;MADRID;28012;EMBAJADORES;CENTRO;440732;4473259;4.040.595.710.517.700;-3.699.779.793.558.760;"902 430 322                                              
";915 063 876;casaencendida@cajamadrid.es;/contenido/entidadesYorganismos/MonumentosEdificiosArtisticos; 
2047;Hemeroteca Municipal; Fundada en 1916, por iniciativa de los periodistas Ricardo Fuente y Antonio Asenjo, custodia prensa proveniente de todo el mundo hasta mediados del siglo  XX . A partir de 1966 recoge, casi exclusivamente, la prensa editada en Madrid.   Sus fondos abarcan una completísima colección de más de cuatro siglos de publicaciones periódicas. Destacan por su importancia las colecciones de los siglos  XVII  y  XVIII , correspondientes a los primeros momentos de la historia de la prensa española. Abundantes y completas  son las del siglo  XIX   y de la Guerra Civil,1936-1939. Son muy valiosos también, los fondos  de prensa antigua hispano- americana, francesa y alemana. ; Lunes a Viernes, de 9 a 21 horas (peticiones hasta 20:30 horas) Del 2 al 31 de julio y del 1 al 15 de septiembre: de 9 a 20:30 horas (peticiones hasta las 20 horas) Agosto: Lunes a Viernes, de 9 a 14 horas (peticiones hasta las 13:30 horas) Recogida de reprografía: Lunes a Viernes de 9 a 14 horas. Cerrado festivos y los días 24 y 31 diciembre. ;"  Los  servicios que se prestan  son los siguientes:    Información general y especializada.   Consulta de fondos: colecciones en papel, microfilmadas y digitalizadas   Préstamo para exposiciones  Reproducción de documentos  Actividades culturales: visitas guiadas; exposiciones propias o en colaboración.  Publicaciones  Servicios en línea  Acceso a hemerotecas digitales  Espacio Wifi   Para consulta de los fondos es necesario la tarjeta de lector (se expide a mayores de 18 años, presentando  D.N.I.  o Pasaporte).  Atención a personas con discapacidad auditiva. Teléfono: 91 480 06 52 Pupitres adaptados para usuarios con movilidad reducida. "; Metro : San Bernardo , Ventura Rodríguez, Plaza de España, Noviciado  Bus : 1, 2, 7, 21, 44, 74, 147, Circular, Minibus M-2;  Directorio:      Dirección  Inmaculada Zaragoza García Teléfono: 91 588 57 74 Correo:  zaragozagi@madrid.es     Secretaría  Teléfono: 91 588 57 77 o 91 588 57 74 Correo:  hemeroteca@madrid.es     Gestión económica y administrativa  Teléfono: 91 588 57 76 Correo:  gonzalezbj@madrid.es    Sección Contemporánea (Publicaciones en curso)  Teléfono: 91 588 57 67, 91 513 33 65 y 91 588 5756 Correo:  contemporanea@madrid.es       Sección Histórica  Teléfono: 91 480 06 52 y 91 480 06 05 Correo:  antonbmc@madrid.es    Sección Información  Teléfono: 91 588 57 75 y 91 513 31 64 Correo:  infohemeroteca@madrid.es    Difusión  Teléfono: 91 480 05 79 Correo:  concejoml@madrid.es    Negociado de Microfilm  Teléfono: 91 588 57 73 Correo:    nmicrofilm@madrid.es     Recepción  Teléfono: 91 588 57 71 y 91 588 57 64   ;1;http://www.madrid.es/vgn-ext-templating/v/index.jsp?vgnextchannel=9e4c43db40317010VgnVCM100000dc0ca8c0RCRD&vgnextoid=11951e79ee71c010VgnVCM1000000b205a0aRCRD;CONDE DUQUE;CALLE;V;11;;;;;MADRID;MADRID;28015;UNIVERSIDAD;CENTRO;439864;4475706;40.427.938.443.518.200;-3.710.240.346.719.510;"91 588 57 71, 91 513 31 64 (Información general)                                                                 
91 588 57 73 (Reprografía)";;hemeroteca@madrid.es;/contenido/entidadesYorganismos/BibliotecasPublicas; 
